{"type":"FeatureCollection","name":"amenity","features":[{"id":"47649127-ae68-4bec-ab15-4c09e5b8e464","type":"Feature","feature_type":"amenity","geometry":{"type":"Point","coordinates":[30.377582097416386,60.009196413206119]},"properties":{"category":"stairs","name":{"ru":"Лестница","en":"Stairs"},"alt_name":{"ru":"Лестница","en":"Stairs"},"unit_ids":["f7c1d310-dbe6-4c2b-96b0-8103413b991c"],"hours":null,"phone":null,"website":null,"detailLevel":4,"address_id":null}},{"id":"d629bf4b-7cd5-4e03-8604-fed001566dca","type":"Feature","feature_type":"amenity","geometry":{"type":"Point","coordinates":[30.377897899912469,60.009665259231092]},"properties":{"category":"stairs","name":{"ru":"Лестница","en":"Stairs"},"alt_name":{"ru":"Лестница","en":"Stairs"},"unit_ids":["b0994e40-9efc-45df-9a2a-2645afea795e"],"hours":null,"phone":null,"website":null,"detailLevel":4,"address_id":null}},{"id":"8f4cbfbd-8887-45da-a74b-23a377d77688","type":"Feature","feature_type":"amenity","geometry":{"type":"Point","coordinates":[30.379056056410025,60.008933310046771]},"properties":{"category":"stairs","name":{"ru":"Лестница","en":"Stairs"},"alt_name":{"ru":"Лестница","en":"Stairs"},"unit_ids":["6649877f-ed66-4f79-b0de-a1722c96eed3"],"hours":null,"phone":null,"website":null,"detailLevel":4,"address_id":null}},{"id":"a3859f5d-08d8-4cea-a798-ec05c37286c8","type":"Feature","feature_type":"amenity","geometry":{"type":"Point","coordinates":[30.374533091488924,60.00853056119395]},"properties":{"category":"stairs","name":{"ru":"Лестница","en":"Stairs"},"alt_name":{"ru":"Лестница","en":"Stairs"},"unit_ids":["a28092f4-7200-464e-86b0-6bb4fde53522"],"hours":null,"phone":null,"website":null,"detailLevel":4,"address_id":null}},{"id":"f5594466-6285-43b8-9cea-a76b8811499b","type":"Feature","feature_type":"amenity","geometry":{"type":"Point","coordinates":[30.374533118939283,60.0085305255153]},"properties":{"category":"stairs","name":{"ru":"Лестница","en":"Stairs"},"alt_name":{"ru":"Лестница","en":"Stairs"},"unit_ids":["770d27cc-cf0c-4f3e-9d88-5b9bcca12964"],"hours":null,"phone":null,"website":null,"detailLevel":4,"address_id":null}},{"id":"fdc3cf0d-1812-412e-a6a7-fdd6f875c2a5","type":"Feature","feature_type":"amenity","geometry":{"type":"Point","coordinates":[30.374533010511424,60.008530505754813]},"properties":{"category":"stairs","name":{"ru":"Лестница","en":"Stairs"},"alt_name":{"ru":"Лестница","en":"Stairs"},"unit_ids":["db4e33d7-13a4-4b5f-ba9f-8596684c68f6"],"hours":null,"phone":null,"website":null,"detailLevel":4,"address_id":null}},{"id":"3cd49b43-af50-4d10-97db-2c8337a75631","type":"Feature","feature_type":"amenity","geometry":{"type":"Point","coordinates":[30.374533084900904,60.008530560096141]},"properties":{"category":"stairs","name":{"ru":"Лестница","en":"Stairs"},"alt_name":{"ru":"Лестница","en":"Stairs"},"unit_ids":["cfb16c24-3b66-4b27-a37b-1f06dfe22959"],"hours":null,"phone":null,"website":null,"detailLevel":4,"address_id":null}},{"id":"5bc7bf5e-5aa6-4cc9-bf0f-67e1cde2ea91","type":"Feature","feature_type":"amenity","geometry":{"type":"Point","coordinates":[30.379284127422064,60.006495119918455]},"properties":{"category":"stairs","name":{"ru":"Лестница","en":"Stairs"},"alt_name":{"ru":"Лестница","en":"Stairs"},"unit_ids":["6c04a44a-9cd4-498f-abf1-3887b0197d89"],"hours":null,"phone":null,"website":null,"detailLevel":4,"address_id":null}},{"id":"5a435c70-83bc-4418-843f-fd6aee4214cc","type":"Feature","feature_type":"amenity","geometry":{"type":"Point","coordinates":[30.373131521242357,60.008764958408022]},"properties":{"category":"stairs","name":{"ru":"Лестница","en":"Stairs"},"alt_name":{"ru":"Лестница","en":"Stairs"},"unit_ids":["bc290a42-b42c-4cbf-84e4-bbf99de79886"],"hours":null,"phone":null,"website":null,"detailLevel":4,"address_id":null}},{"id":"04e78104-7012-4e4a-8180-6be12f3e1785","type":"Feature","feature_type":"amenity","geometry":{"type":"Point","coordinates":[30.37313156735917,60.008764942489861]},"properties":{"category":"stairs","name":{"ru":"Лестница","en":"Stairs"},"alt_name":{"ru":"Лестница","en":"Stairs"},"unit_ids":["01f9eda4-1bf2-45e8-ae3d-d084788fb89b"],"hours":null,"phone":null,"website":null,"detailLevel":4,"address_id":null}},{"id":"f387ebb8-5064-4eae-b8d9-620fb09d8814","type":"Feature","feature_type":"amenity","geometry":{"type":"Point","coordinates":[30.373131521242357,60.008764958408022]},"properties":{"category":"stairs","name":{"ru":"Лестница","en":"Stairs"},"alt_name":{"ru":"Лестница","en":"Stairs"},"unit_ids":["c8ca1396-ac9f-46c1-add3-f9d6570e0992"],"hours":null,"phone":null,"website":null,"detailLevel":4,"address_id":null}},{"id":"21f3cb57-d6e2-4547-9312-00671a12a622","type":"Feature","feature_type":"amenity","geometry":{"type":"Point","coordinates":[30.381069617220234,60.007291043669611]},"properties":{"category":"stairs","name":{"ru":"Лестница","en":"Stairs"},"alt_name":{"ru":"Лестница","en":"Stairs"},"unit_ids":["de6b90d5-dd0c-4831-942c-2cb49676f5f8"],"hours":null,"phone":null,"website":null,"detailLevel":3,"address_id":null}},{"id":"61eb6c7e-7a16-4904-9c68-5eb8521fa6bb","type":"Feature","feature_type":"amenity","geometry":{"type":"Point","coordinates":[30.382313860494769,60.0070811025245]},"properties":{"category":"stairs","name":{"ru":"Лестница","en":"Stairs"},"alt_name":{"ru":"Лестница","en":"Stairs"},"unit_ids":["ec92cac2-736a-476e-a9b3-580da7a4f46e"],"hours":null,"phone":null,"website":null,"detailLevel":3,"address_id":null}},{"id":"513048f6-0a00-4df9-9551-3cc681549d02","type":"Feature","feature_type":"amenity","geometry":{"type":"Point","coordinates":[30.381745679841032,60.00726595718632]},"properties":{"category":"elevator","name":{"ru":"Лифт","en":"Elevator"},"alt_name":{"ru":"Лифт","en":"Elevator"},"unit_ids":["2fa0d1d9-3433-42b6-b00a-f77796ef8636"],"hours":null,"phone":null,"website":null,"detailLevel":4,"address_id":null}},{"id":"263124c8-8e91-4dfe-b17e-0f81a0fd830b","type":"Feature","feature_type":"amenity","geometry":{"type":"Point","coordinates":[30.381069999312832,60.00729097917359]},"properties":{"category":"stairs","name":{"ru":"Лестница","en":"Stairs"},"alt_name":{"ru":"Лестница","en":"Stairs"},"unit_ids":["a63d0031-641d-4d8b-b4f3-b0e8b589f6fb"],"hours":null,"phone":null,"website":null,"detailLevel":3,"address_id":null}},{"id":"745762b7-9c83-4172-890b-e9a4489eb821","type":"Feature","feature_type":"amenity","geometry":{"type":"Point","coordinates":[30.382313860494769,60.0070811025245]},"properties":{"category":"stairs","name":{"ru":"Лестница","en":"Stairs"},"alt_name":{"ru":"Лестница","en":"Stairs"},"unit_ids":["e2944379-931b-43ad-bcb4-734cd194f1e1"],"hours":null,"phone":null,"website":null,"detailLevel":3,"address_id":null}},{"id":"8158f8f5-e075-4154-9f71-dd46be2270cf","type":"Feature","feature_type":"amenity","geometry":{"type":"Point","coordinates":[30.381745679841032,60.00726595718632]},"properties":{"category":"elevator","name":{"ru":"Лифт","en":"Elevator"},"alt_name":{"ru":"Лифт","en":"Elevator"},"unit_ids":["82541d22-4d72-4444-93c0-5a4eb0e03b73"],"hours":null,"phone":null,"website":null,"detailLevel":4,"address_id":null}},{"id":"4761a82a-5e10-4a7f-addc-2e4ea2c81174","type":"Feature","feature_type":"amenity","geometry":{"type":"Point","coordinates":[30.381069999312832,60.00729097917359]},"properties":{"category":"stairs","name":{"ru":"Лестница","en":"Stairs"},"alt_name":{"ru":"Лестница","en":"Stairs"},"unit_ids":["ce4ba3ca-b380-4e2b-ad24-7ea3ff299604"],"hours":null,"phone":null,"website":null,"detailLevel":3,"address_id":null}},{"id":"81ed4059-eaa9-4c88-8cfe-44cf304ba4f9","type":"Feature","feature_type":"amenity","geometry":{"type":"Point","coordinates":[30.382313860494769,60.0070811025245]},"properties":{"category":"stairs","name":{"ru":"Лестница","en":"Stairs"},"alt_name":{"ru":"Лестница","en":"Stairs"},"unit_ids":["f8dd332c-08c3-475e-bcda-e3a1a0ff404e"],"hours":null,"phone":null,"website":null,"detailLevel":3,"address_id":null}},{"id":"2292e37d-c7c1-4ec5-8083-1502ee73ec68","type":"Feature","feature_type":"amenity","geometry":{"type":"Point","coordinates":[30.381745679841032,60.00726595718632]},"properties":{"category":"elevator","name":{"ru":"Лифт","en":"Elevator"},"alt_name":{"ru":"Лифт","en":"Elevator"},"unit_ids":["69a4862e-e24d-4696-8a59-25d409b453fe"],"hours":null,"phone":null,"website":null,"detailLevel":4,"address_id":null}},{"id":"c81cc643-a03c-4e86-a445-a5f52af5dd96","type":"Feature","feature_type":"amenity","geometry":{"type":"Point","coordinates":[30.381069999312832,60.00729097917359]},"properties":{"category":"stairs","name":{"ru":"Лестница","en":"Stairs"},"alt_name":{"ru":"Лестница","en":"Stairs"},"unit_ids":["fea45db9-3603-4d0a-aec3-e211a012d839"],"hours":null,"phone":null,"website":null,"detailLevel":3,"address_id":null}},{"id":"d282af15-62c6-4425-a77c-00781e3a7e0b","type":"Feature","feature_type":"amenity","geometry":{"type":"Point","coordinates":[30.382313860494769,60.0070811025245]},"properties":{"category":"stairs","name":{"ru":"Лестница","en":"Stairs"},"alt_name":{"ru":"Лестница","en":"Stairs"},"unit_ids":["4e6ada67-ada6-4af5-99db-636680b135b1"],"hours":null,"phone":null,"website":null,"detailLevel":3,"address_id":null}},{"id":"61365b0d-481b-4715-bd18-855f51609a4d","type":"Feature","feature_type":"amenity","geometry":{"type":"Point","coordinates":[30.381745679841032,60.00726595718632]},"properties":{"category":"elevator","name":{"ru":"Лифт","en":"Elevator"},"alt_name":{"ru":"Лифт","en":"Elevator"},"unit_ids":["77c70eff-7adb-48b3-b808-0a518d9f01b7"],"hours":null,"phone":null,"website":null,"detailLevel":4,"address_id":null}},{"id":"aca739e0-66ef-4bc2-b56d-6d6f780cb06b","type":"Feature","feature_type":"amenity","geometry":{"type":"Point","coordinates":[30.381069999312832,60.00729097917359]},"properties":{"category":"stairs","name":{"ru":"Лестница","en":"Stairs"},"alt_name":{"ru":"Лестница","en":"Stairs"},"unit_ids":["dd079d23-44a7-4800-80a0-ad91efdcc489"],"hours":null,"phone":null,"website":null,"detailLevel":3,"address_id":null}},{"id":"daedac7c-4db6-4c1b-965f-0d2bb08e020a","type":"Feature","feature_type":"amenity","geometry":{"type":"Point","coordinates":[30.382313860494769,60.0070811025245]},"properties":{"category":"stairs","name":{"ru":"Лестница","en":"Stairs"},"alt_name":{"ru":"Лестница","en":"Stairs"},"unit_ids":["7b89a500-0917-49ff-ab02-f73313ac4425"],"hours":null,"phone":null,"website":null,"detailLevel":3,"address_id":null}},{"id":"78cbd7b0-45e2-4cbb-b2ed-4a88eb07cfe1","type":"Feature","feature_type":"amenity","geometry":{"type":"Point","coordinates":[30.381745679841032,60.00726595718632]},"properties":{"category":"elevator","name":{"ru":"Лифт","en":"Elevator"},"alt_name":{"ru":"Лифт","en":"Elevator"},"unit_ids":["7830b48c-4a97-4f94-8598-50d55c6112e0"],"hours":null,"phone":null,"website":null,"detailLevel":4,"address_id":null}},{"id":"9fd44242-4632-441c-95f2-34307d238936","type":"Feature","feature_type":"amenity","geometry":{"type":"Point","coordinates":[30.379284127422064,60.006495119918455]},"properties":{"category":"stairs","name":{"ru":"Лестница","en":"Stairs"},"alt_name":{"ru":"Лестница","en":"Stairs"},"unit_ids":["90d0f3e8-2d60-44c2-9dff-06f3ab1511d3"],"hours":null,"phone":null,"website":null,"detailLevel":4,"address_id":null}},{"id":"f8d0af4f-eabf-470c-ac5a-4d742c74aeef","type":"Feature","feature_type":"amenity","geometry":{"type":"Point","coordinates":[30.378347599650958,60.006449819283418]},"properties":{"category":"stairs","name":{"ru":"Лестница","en":"Stairs"},"alt_name":{"ru":"Лестница","en":"Stairs"},"unit_ids":["72037380-74d2-45c9-8aa5-f89fc1a9d1c0"],"hours":null,"phone":null,"website":null,"detailLevel":4,"address_id":null}},{"id":"41bc69d7-f222-4412-8a65-66e0d29bf260","type":"Feature","feature_type":"amenity","geometry":{"type":"Point","coordinates":[30.378128406729513,60.006125169901146]},"properties":{"category":"stairs","name":{"ru":"Лестница","en":"Stairs"},"alt_name":{"ru":"Лестница","en":"Stairs"},"unit_ids":["0ae3562b-02f0-4e08-a6d8-78cd5875c78f"],"hours":null,"phone":null,"website":null,"detailLevel":4,"address_id":null}},{"id":"51f61744-b409-441c-bb69-725df7231772","type":"Feature","feature_type":"amenity","geometry":{"type":"Point","coordinates":[30.380199741191213,60.006137836371373]},"properties":{"category":"stairs","name":{"ru":"Лестница","en":"Stairs"},"alt_name":{"ru":"Лестница","en":"Stairs"},"unit_ids":["893a74f9-a3cf-4899-bf58-d94081a0a7c5"],"hours":null,"phone":null,"website":null,"detailLevel":4,"address_id":null}},{"id":"c916bc04-241f-4644-9476-2d8d8fa786d8","type":"Feature","feature_type":"amenity","geometry":{"type":"Point","coordinates":[30.379979992861923,60.005812944099823]},"properties":{"category":"stairs","name":{"ru":"Лестница","en":"Stairs"},"alt_name":{"ru":"Лестница","en":"Stairs"},"unit_ids":["55f4e4c6-c315-4cf5-9dbd-5caee1c31dca"],"hours":null,"phone":null,"website":null,"detailLevel":4,"address_id":null}},{"id":"bb3ff9f6-5fb0-4d00-81e5-0e2fe7cc733b","type":"Feature","feature_type":"amenity","geometry":{"type":"Point","coordinates":[30.379014462266042,60.006259466541387]},"properties":{"category":"stairs","name":{"ru":"Лестница","en":"Stairs"},"alt_name":{"ru":"Лестница","en":"Stairs"},"unit_ids":["1c680add-8eca-449e-8be0-7f829e46e6cf"],"hours":null,"phone":null,"website":null,"detailLevel":4,"address_id":null}},{"id":"b3352560-cbf0-40a1-b869-f57143c7a9b2","type":"Feature","feature_type":"amenity","geometry":{"type":"Point","coordinates":[30.379505107425071,60.006457131485838]},"properties":{"category":"stairs","name":{"ru":"Лестница","en":"Stairs"},"alt_name":{"ru":"Лестница","en":"Stairs"},"unit_ids":["7f4c7e92-5f9f-4bc1-9e2f-c9842c2180ab"],"hours":null,"phone":null,"website":null,"detailLevel":4,"address_id":null}},{"id":"bed27d4e-d7f5-4507-b6bb-530dfda93026","type":"Feature","feature_type":"amenity","geometry":{"type":"Point","coordinates":[30.378836047906393,60.00686621137816]},"properties":{"category":"stairs","name":{"ru":"Лестница","en":"Stairs"},"alt_name":{"ru":"Лестница","en":"Stairs"},"unit_ids":["acdb92f2-3af7-443e-bdfb-fc4aab1c406b"],"hours":null,"phone":null,"website":null,"detailLevel":4,"address_id":null}},{"id":"f2288cf7-3d8c-4b42-aee5-045b2d1c4a36","type":"Feature","feature_type":"amenity","geometry":{"type":"Point","coordinates":[30.379294970155112,60.0066837230343]},"properties":{"category":"stairs","name":{"ru":"Лестница","en":"Stairs"},"alt_name":{"ru":"Лестница","en":"Stairs"},"unit_ids":["bddd9c66-9625-4db4-871d-afc6c03f4f9b"],"hours":null,"phone":null,"website":null,"detailLevel":4,"address_id":null}},{"id":"f0bfbbef-0a69-4f92-a613-8bd0710579eb","type":"Feature","feature_type":"amenity","geometry":{"type":"Point","coordinates":[30.38031286823955,60.0066181088962]},"properties":{"category":"stairs","name":{"ru":"Лестница","en":"Stairs"},"alt_name":{"ru":"Лестница","en":"Stairs"},"unit_ids":["9c70118a-f49f-438b-9a4c-a4be0e8e1c9e"],"hours":null,"phone":null,"website":null,"detailLevel":4,"address_id":null}},{"id":"c28f1920-7cca-4545-a208-926af5d4aa28","type":"Feature","feature_type":"amenity","geometry":{"type":"Point","coordinates":[30.379240821009862,60.006245191787336]},"properties":{"category":"elevator","name":{"ru":"Лифт","en":"Elevator"},"alt_name":{"ru":"Лифт","en":"Elevator"},"unit_ids":["5e718a93-9d9c-4902-9dfc-31d6f6ff7344"],"hours":null,"phone":null,"website":null,"detailLevel":4,"address_id":null}},{"id":"51a467ac-a844-48f6-aac9-e869f891480c","type":"Feature","feature_type":"amenity","geometry":{"type":"Point","coordinates":[30.379530805768439,60.006418368826481]},"properties":{"category":"stairs","name":{"ru":"Лестница","en":"Stairs"},"alt_name":{"ru":"Лестница","en":"Stairs"},"unit_ids":["69c1447e-8747-405c-b2d7-7039fb136f13"],"hours":null,"phone":null,"website":null,"detailLevel":4,"address_id":null}},{"id":"65cfa2c5-6f51-4f49-8836-878367a72630","type":"Feature","feature_type":"amenity","geometry":{"type":"Point","coordinates":[30.379437034323821,60.006188744592635]},"properties":{"category":"stairs","name":{"ru":"Лестница","en":"Stairs"},"alt_name":{"ru":"Лестница","en":"Stairs"},"unit_ids":["866d52c5-394f-4162-86d4-17546e40f24a"],"hours":null,"phone":null,"website":null,"detailLevel":4,"address_id":null}},{"id":"5ba55039-473f-4f5f-87e3-51606f12dda0","type":"Feature","feature_type":"amenity","geometry":{"type":"Point","coordinates":[30.379284127422064,60.006495119918455]},"properties":{"category":"stairs","name":{"ru":"Лестница","en":"Stairs"},"alt_name":{"ru":"Лестница","en":"Stairs"},"unit_ids":["b26356bf-0e06-47a3-86a2-5e3f2e195cd7"],"hours":null,"phone":null,"website":null,"detailLevel":4,"address_id":null}},{"id":"98fed168-0f93-4627-bf3a-30974b86caa4","type":"Feature","feature_type":"amenity","geometry":{"type":"Point","coordinates":[30.378347599650958,60.006449819283418]},"properties":{"category":"stairs","name":{"ru":"Лестница","en":"Stairs"},"alt_name":{"ru":"Лестница","en":"Stairs"},"unit_ids":["4f401ebe-b006-4ffb-8b94-211aa33b112c"],"hours":null,"phone":null,"website":null,"detailLevel":4,"address_id":null}},{"id":"7197286f-7662-4289-862b-a428d7831c2b","type":"Feature","feature_type":"amenity","geometry":{"type":"Point","coordinates":[30.378128406729513,60.006125169901146]},"properties":{"category":"stairs","name":{"ru":"Лестница","en":"Stairs"},"alt_name":{"ru":"Лестница","en":"Stairs"},"unit_ids":["d17d38b4-14c4-4c7c-b6d9-593b6ba571a0"],"hours":null,"phone":null,"website":null,"detailLevel":4,"address_id":null}},{"id":"d3f02d70-73f1-4ba6-98ec-489de4032285","type":"Feature","feature_type":"amenity","geometry":{"type":"Point","coordinates":[30.380199387613928,60.006137425792424]},"properties":{"category":"stairs","name":{"ru":"Лестница","en":"Stairs"},"alt_name":{"ru":"Лестница","en":"Stairs"},"unit_ids":["0ad913f6-c4fc-4fd4-88ad-85e96f982a59"],"hours":null,"phone":null,"website":null,"detailLevel":4,"address_id":null}},{"id":"025d48b2-0510-4fb0-9942-0ebf81690d00","type":"Feature","feature_type":"amenity","geometry":{"type":"Point","coordinates":[30.379979992861923,60.005812944099823]},"properties":{"category":"stairs","name":{"ru":"Лестница","en":"Stairs"},"alt_name":{"ru":"Лестница","en":"Stairs"},"unit_ids":["4d873149-f4cf-4018-948d-a8b51cc912d3"],"hours":null,"phone":null,"website":null,"detailLevel":4,"address_id":null}},{"id":"e773d33c-9849-40b9-8469-4dc759328fa4","type":"Feature","feature_type":"amenity","geometry":{"type":"Point","coordinates":[30.379014462266042,60.006259466541387]},"properties":{"category":"stairs","name":{"ru":"Лестница","en":"Stairs"},"alt_name":{"ru":"Лестница","en":"Stairs"},"unit_ids":["04a5042a-1f39-4b4e-bf5f-ad9a2e97a325"],"hours":null,"phone":null,"website":null,"detailLevel":4,"address_id":null}},{"id":"768208e2-c9ca-48e2-9318-7d2e872e3032","type":"Feature","feature_type":"amenity","geometry":{"type":"Point","coordinates":[30.378836047906393,60.00686621137816]},"properties":{"category":"stairs","name":{"ru":"Лестница","en":"Stairs"},"alt_name":{"ru":"Лестница","en":"Stairs"},"unit_ids":["8adeb631-3c4a-41b8-895e-e1bd7d3d1717"],"hours":null,"phone":null,"website":null,"detailLevel":4,"address_id":null}},{"id":"fb0fdfe2-e0b4-4c10-8751-d290c0c56dca","type":"Feature","feature_type":"amenity","geometry":{"type":"Point","coordinates":[30.379294970155112,60.0066837230343]},"properties":{"category":"stairs","name":{"ru":"Лестница","en":"Stairs"},"alt_name":{"ru":"Лестница","en":"Stairs"},"unit_ids":["dc5f5178-32f7-4742-926b-f913b0d3062f"],"hours":null,"phone":null,"website":null,"detailLevel":4,"address_id":null}},{"id":"25396e5f-35db-41ca-9926-46da01725d78","type":"Feature","feature_type":"amenity","geometry":{"type":"Point","coordinates":[30.38031286823955,60.0066181088962]},"properties":{"category":"stairs","name":{"ru":"Лестница","en":"Stairs"},"alt_name":{"ru":"Лестница","en":"Stairs"},"unit_ids":["11519b32-f5e7-43a4-b290-73b14f7e5976"],"hours":null,"phone":null,"website":null,"detailLevel":4,"address_id":null}},{"id":"0c84e364-6b7c-4d2d-9555-6b3607aef317","type":"Feature","feature_type":"amenity","geometry":{"type":"Point","coordinates":[30.379240821009862,60.006245191787336]},"properties":{"category":"elevator","name":{"ru":"Лифт","en":"Elevator"},"alt_name":{"ru":"Лифт","en":"Elevator"},"unit_ids":["ffba66e6-8564-4267-a59b-249ebc9067ca"],"hours":null,"phone":null,"website":null,"detailLevel":4,"address_id":null}},{"id":"5de7ac75-9657-4dcf-9061-3607d9e61b19","type":"Feature","feature_type":"amenity","geometry":{"type":"Point","coordinates":[30.379437034323821,60.006188744592635]},"properties":{"category":"stairs","name":{"ru":"Лестница","en":"Stairs"},"alt_name":{"ru":"Лестница","en":"Stairs"},"unit_ids":["9a4bec7d-4318-49e3-b1e4-acc1b2e10176"],"hours":null,"phone":null,"website":null,"detailLevel":4,"address_id":null}},{"id":"e3ead20a-8e9b-4ac4-9ad3-cd5cc40b47cb","type":"Feature","feature_type":"amenity","geometry":{"type":"Point","coordinates":[30.379505107425071,60.006457131485838]},"properties":{"category":"stairs","name":{"ru":"Лестница","en":"Stairs"},"alt_name":{"ru":"Лестница","en":"Stairs"},"unit_ids":["051599ad-c925-4964-9709-68c6fbef566b"],"hours":null,"phone":null,"website":null,"detailLevel":4,"address_id":null}},{"id":"07720e3e-f851-4478-bfbb-72c48e9e116f","type":"Feature","feature_type":"amenity","geometry":{"type":"Point","coordinates":[30.378347599650958,60.006449819283418]},"properties":{"category":"stairs","name":{"ru":"Лестница","en":"Stairs"},"alt_name":{"ru":"Лестница","en":"Stairs"},"unit_ids":["47716386-d707-40de-a2ef-eaac65895ef5"],"hours":null,"phone":null,"website":null,"detailLevel":4,"address_id":null}},{"id":"15537f90-1c5f-4f05-ad78-943c9771f695","type":"Feature","feature_type":"amenity","geometry":{"type":"Point","coordinates":[30.378128406729513,60.006125169901146]},"properties":{"category":"stairs","name":{"ru":"Лестница","en":"Stairs"},"alt_name":{"ru":"Лестница","en":"Stairs"},"unit_ids":["fc9193f7-5951-449a-87b7-7e6ca848f212"],"hours":null,"phone":null,"website":null,"detailLevel":4,"address_id":null}},{"id":"d27157fd-5c91-4c81-93a5-860ac2057f38","type":"Feature","feature_type":"amenity","geometry":{"type":"Point","coordinates":[30.380199387613928,60.006137425792424]},"properties":{"category":"stairs","name":{"ru":"Лестница","en":"Stairs"},"alt_name":{"ru":"Лестница","en":"Stairs"},"unit_ids":["dfba3f0c-b4c6-4d8f-9e7b-c00621a3288a"],"hours":null,"phone":null,"website":null,"detailLevel":4,"address_id":null}},{"id":"d05aeb87-094a-4920-98a8-5b926a996c5e","type":"Feature","feature_type":"amenity","geometry":{"type":"Point","coordinates":[30.379979992861923,60.005812944099823]},"properties":{"category":"stairs","name":{"ru":"Лестница","en":"Stairs"},"alt_name":{"ru":"Лестница","en":"Stairs"},"unit_ids":["71f6f086-2551-415d-95df-5a0d55d80f0c"],"hours":null,"phone":null,"website":null,"detailLevel":4,"address_id":null}},{"id":"90575c69-4209-4405-ac71-fde8288f63c0","type":"Feature","feature_type":"amenity","geometry":{"type":"Point","coordinates":[30.379014462266042,60.006259466541387]},"properties":{"category":"stairs","name":{"ru":"Лестница","en":"Stairs"},"alt_name":{"ru":"Лестница","en":"Stairs"},"unit_ids":["c73ad99c-c8eb-475f-9545-685422965357"],"hours":null,"phone":null,"website":null,"detailLevel":4,"address_id":null}},{"id":"f9ba28c7-4192-4d14-8b8c-55f46e6477cc","type":"Feature","feature_type":"amenity","geometry":{"type":"Point","coordinates":[30.378836047906393,60.00686621137816]},"properties":{"category":"stairs","name":{"ru":"Лестница","en":"Stairs"},"alt_name":{"ru":"Лестница","en":"Stairs"},"unit_ids":["48af3339-c189-4d30-a44a-38379033bd76"],"hours":null,"phone":null,"website":null,"detailLevel":4,"address_id":null}},{"id":"a59952f6-bdd7-4e34-b173-932db2f6fdf4","type":"Feature","feature_type":"amenity","geometry":{"type":"Point","coordinates":[30.379294970155112,60.0066837230343]},"properties":{"category":"stairs","name":{"ru":"Лестница","en":"Stairs"},"alt_name":{"ru":"Лестница","en":"Stairs"},"unit_ids":["c8725730-d9f5-4344-ab3b-6f1e381fb669"],"hours":null,"phone":null,"website":null,"detailLevel":4,"address_id":null}},{"id":"515a5a9c-5e90-4449-8f38-3cf360befe54","type":"Feature","feature_type":"amenity","geometry":{"type":"Point","coordinates":[30.38031286823955,60.0066181088962]},"properties":{"category":"stairs","name":{"ru":"Лестница","en":"Stairs"},"alt_name":{"ru":"Лестница","en":"Stairs"},"unit_ids":["a2bbca48-b999-4537-a9bd-62fac9f1ecc0"],"hours":null,"phone":null,"website":null,"detailLevel":4,"address_id":null}},{"id":"db59965d-286d-48ec-a470-3303e8de578d","type":"Feature","feature_type":"amenity","geometry":{"type":"Point","coordinates":[30.379240936307411,60.006245362221506]},"properties":{"category":"elevator","name":{"ru":"Лифт","en":"Elevator"},"alt_name":{"ru":"Лифт","en":"Elevator"},"unit_ids":["52835754-b8cb-490a-8335-7ee5c2263db7"],"hours":null,"phone":null,"website":null,"detailLevel":4,"address_id":null}},{"id":"cae1726b-cb69-40ed-b96c-d509cb63d982","type":"Feature","feature_type":"amenity","geometry":{"type":"Point","coordinates":[30.379437034323821,60.006188744592635]},"properties":{"category":"stairs","name":{"ru":"Лестница","en":"Stairs"},"alt_name":{"ru":"Лестница","en":"Stairs"},"unit_ids":["d368c384-0377-41a5-9036-33f288f5e967"],"hours":null,"phone":null,"website":null,"detailLevel":4,"address_id":null}},{"id":"fd529849-7513-4116-ab65-02137cd232d4","type":"Feature","feature_type":"amenity","geometry":{"type":"Point","coordinates":[30.379505107425071,60.006457131485838]},"properties":{"category":"stairs","name":{"ru":"Лестница","en":"Stairs"},"alt_name":{"ru":"Лестница","en":"Stairs"},"unit_ids":["49fd9604-cd29-4693-bef7-d5beff7a4062"],"hours":null,"phone":null,"website":null,"detailLevel":4,"address_id":null}},{"id":"c5bb07bc-5084-4584-8409-a10dabfe9523","type":"Feature","feature_type":"amenity","geometry":{"type":"Point","coordinates":[30.372882169528324,60.008833190261349]},"properties":{"category":"vendingmachine","name":{"ru":"Справочный аппарат","en":"Stairs"},"alt_name":{"ru":"Справочный аппарат","en":"Stairs"},"unit_ids":["bcf562dc-2c84-4dff-90bc-1be7473cfcbb"],"hours":null,"phone":null,"website":null,"detailLevel":4,"address_id":null}},{"id":"51600113-6f3e-41f7-86d8-c905796e8845","type":"Feature","feature_type":"amenity","geometry":{"type":"Point","coordinates":[30.374750387684696,60.00855378086041]},"properties":{"category":"vendingmachine","name":{"ru":"Вендинговый аппарат","en":"Stairs"},"alt_name":{"ru":"Вендинговый апарат","en":"Stairs"},"unit_ids":["4bda58ec-8189-4225-84f1-ac691945cd10"],"hours":null,"phone":null,"website":null,"detailLevel":4,"address_id":null}},{"id":"617360a2-f30a-4a11-b63f-a9e33b32cc00","type":"Feature","feature_type":"amenity","geometry":{"type":"Point","coordinates":[30.373210207932651,60.008296173311209]},"properties":{"category":"stairs","name":{"ru":"Лестница","en":"Stairs"},"alt_name":{"ru":"Лестница","en":"Stairs"},"unit_ids":["b3d21aad-6762-4e10-936d-29da66e0207f"],"hours":null,"phone":null,"website":null,"detailLevel":4,"address_id":null}},{"id":"c7391f64-59e1-42f5-821f-e341b4d2c9c1","type":"Feature","feature_type":"amenity","geometry":{"type":"Point","coordinates":[30.373901043902208,60.008172019288267]},"properties":{"category":"stairs","name":{"ru":"Лестница","en":"Stairs"},"alt_name":{"ru":"Лестница","en":"Stairs"},"unit_ids":["6737e1c3-d326-4208-8401-09a62759c61f"],"hours":null,"phone":null,"website":null,"detailLevel":4,"address_id":null}},{"id":"c56a5626-1530-47f2-8bda-99cd175defeb","type":"Feature","feature_type":"amenity","geometry":{"type":"Point","coordinates":[30.37374045837549,60.009084964625465]},"properties":{"category":"stairs","name":{"ru":"Лестница","en":"Stairs"},"alt_name":{"ru":"Лестница","en":"Stairs"},"unit_ids":["3434b195-9865-40bb-a44d-b9a6b5f058a0"],"hours":null,"phone":null,"website":null,"detailLevel":4,"address_id":null}},{"id":"a200c9bc-ae81-4edd-8b2b-feb6c7cd70a0","type":"Feature","feature_type":"amenity","geometry":{"type":"Point","coordinates":[30.375412016613083,60.008801985712658]},"properties":{"category":"stairs","name":{"ru":"Лестница","en":"Stairs"},"alt_name":{"ru":"Лестница","en":"Stairs"},"unit_ids":["e5c537b8-107c-4f82-8345-25e2245a0c95"],"hours":null,"phone":null,"website":null,"detailLevel":4,"address_id":null}},{"id":"d4c970cc-492b-4c78-84b7-d9a941aa6d6d","type":"Feature","feature_type":"amenity","geometry":{"type":"Point","coordinates":[30.374881130341162,60.008006654776018]},"properties":{"category":"stairs","name":{"ru":"Лестница","en":"Stairs"},"alt_name":{"ru":"Лестница","en":"Stairs"},"unit_ids":["d7e991cd-f364-4cef-8164-1750c2e53ff2"],"hours":null,"phone":null,"website":null,"detailLevel":4,"address_id":null}},{"id":"7ca3848c-f82a-4948-87fa-6d0fa8eb3d77","type":"Feature","feature_type":"amenity","geometry":{"type":"Point","coordinates":[30.37313156735917,60.008764942489861]},"properties":{"category":"stairs","name":{"ru":"Лестница","en":"Stairs"},"alt_name":{"ru":"Лестница","en":"Stairs"},"unit_ids":["daf806be-4872-40d5-8412-b9d3c561c5e9"],"hours":null,"phone":null,"website":null,"detailLevel":4,"address_id":null}},{"id":"cd55ffef-20cc-4178-b027-6b0ebd984fba","type":"Feature","feature_type":"amenity","geometry":{"type":"Point","coordinates":[30.373211997682326,60.00829587141493]},"properties":{"category":"stairs","name":{"ru":"Лестница","en":"Stairs"},"alt_name":{"ru":"Лестница","en":"Stairs"},"unit_ids":["10bee90e-dc36-4766-92eb-5a466f5ae2ff"],"hours":null,"phone":null,"website":null,"detailLevel":4,"address_id":null}},{"id":"d5c7f812-8133-40bb-acd6-5441c70e6941","type":"Feature","feature_type":"amenity","geometry":{"type":"Point","coordinates":[30.37373913338855,60.009082720163825]},"properties":{"category":"stairs","name":{"ru":"Лестница","en":"Stairs"},"alt_name":{"ru":"Лестница","en":"Stairs"},"unit_ids":["c48a5e24-652d-4c4e-bc34-61eeee46fc3d"],"hours":null,"phone":null,"website":null,"detailLevel":4,"address_id":null}},{"id":"b1378c20-5b08-43f0-b179-6fedc49311f7","type":"Feature","feature_type":"amenity","geometry":{"type":"Point","coordinates":[30.374440442223776,60.0089659126497]},"properties":{"category":"stairs","name":{"ru":"Лестница","en":"Stairs"},"alt_name":{"ru":"Лестница","en":"Stairs"},"unit_ids":["4bfa7451-8c72-4968-9351-420c7c212217"],"hours":null,"phone":null,"website":null,"detailLevel":4,"address_id":null}},{"id":"276ad16e-c1d3-40d2-93d2-dd1857a4e1a2","type":"Feature","feature_type":"amenity","geometry":{"type":"Point","coordinates":[30.375412016613083,60.008801985712658]},"properties":{"category":"stairs","name":{"ru":"Лестница","en":"Stairs"},"alt_name":{"ru":"Лестница","en":"Stairs"},"unit_ids":["33c19a2c-dd69-4235-91f5-7bb35567ff00"],"hours":null,"phone":null,"website":null,"detailLevel":4,"address_id":null}},{"id":"868f6d0b-6157-46d7-a4ba-9c4ac343f7c2","type":"Feature","feature_type":"amenity","geometry":{"type":"Point","coordinates":[30.374881130066662,60.008006654776018]},"properties":{"category":"stairs","name":{"ru":"Лестница","en":"Stairs"},"alt_name":{"ru":"Лестница","en":"Stairs"},"unit_ids":["23911365-a9d7-48f4-b023-5fbe4cdafd08"],"hours":null,"phone":null,"website":null,"detailLevel":4,"address_id":null}},{"id":"839793ce-6f20-475a-94ca-b7bc806dbbe0","type":"Feature","feature_type":"amenity","geometry":{"type":"Point","coordinates":[30.372235222645941,60.008460105737278]},"properties":{"category":"stairs","name":{"ru":"Лестница","en":"Stairs"},"alt_name":{"ru":"Лестница","en":"Stairs"},"unit_ids":["75236dd3-ef4e-4cbc-94fa-546a8b0cd739"],"hours":null,"phone":null,"website":null,"detailLevel":4,"address_id":null}},{"id":"0b480d1d-4b06-4c5c-a3a5-02d725e5b8c2","type":"Feature","feature_type":"amenity","geometry":{"type":"Point","coordinates":[30.373211997682326,60.00829587141493]},"properties":{"category":"stairs","name":{"ru":"Лестница","en":"Stairs"},"alt_name":{"ru":"Лестница","en":"Stairs"},"unit_ids":["99f06eb2-3d1e-4e32-9c14-30a0939c9cb4"],"hours":null,"phone":null,"website":null,"detailLevel":4,"address_id":null}},{"id":"0256cc3d-c4dd-499a-a919-e9cd3dedf2c6","type":"Feature","feature_type":"amenity","geometry":{"type":"Point","coordinates":[30.37373913338855,60.009082720163825]},"properties":{"category":"stairs","name":{"ru":"Лестница","en":"Stairs"},"alt_name":{"ru":"Лестница","en":"Stairs"},"unit_ids":["8dcd6171-261c-4f30-8ae3-aabf3696d78c"],"hours":null,"phone":null,"website":null,"detailLevel":4,"address_id":null}},{"id":"004db34b-8175-4a09-851d-8285bcc0fecb","type":"Feature","feature_type":"amenity","geometry":{"type":"Point","coordinates":[30.374881130066662,60.008006654776018]},"properties":{"category":"stairs","name":{"ru":"Лестница","en":"Stairs"},"alt_name":{"ru":"Лестница","en":"Stairs"},"unit_ids":["9cef4fc1-fc7c-4ef1-a4c6-102fcf7b092b"],"hours":null,"phone":null,"website":null,"detailLevel":4,"address_id":null}},{"id":"71bb8f2d-f869-44d0-90cf-d42772e67c22","type":"Feature","feature_type":"amenity","geometry":{"type":"Point","coordinates":[30.373211997682326,60.00829587141493]},"properties":{"category":"stairs","name":{"ru":"Лестница","en":"Stairs"},"alt_name":{"ru":"Лестница","en":"Stairs"},"unit_ids":["88b6067e-468c-4499-924c-3cef64875ac4"],"hours":null,"phone":null,"website":null,"detailLevel":4,"address_id":null}},{"id":"ac784632-7424-467a-9b27-ffc5972ea0d5","type":"Feature","feature_type":"amenity","geometry":{"type":"Point","coordinates":[30.37373913338855,60.009082720163825]},"properties":{"category":"stairs","name":{"ru":"Лестница","en":"Stairs"},"alt_name":{"ru":"Лестница","en":"Stairs"},"unit_ids":["08bdaddf-4c52-4539-98b1-abc98936f807"],"hours":null,"phone":null,"website":null,"detailLevel":4,"address_id":null}},{"id":"4df5e95b-3a84-420f-9c95-82126ba6627b","type":"Feature","feature_type":"amenity","geometry":{"type":"Point","coordinates":[30.374440442223776,60.0089659126497]},"properties":{"category":"stairs","name":{"ru":"Лестница","en":"Stairs"},"alt_name":{"ru":"Лестница","en":"Stairs"},"unit_ids":["5ff6b4d6-729f-4c29-97ee-da959402f2c1"],"hours":null,"phone":null,"website":null,"detailLevel":4,"address_id":null}},{"id":"1c9c0943-56d3-4e77-8bcc-e45a1479c18a","type":"Feature","feature_type":"amenity","geometry":{"type":"Point","coordinates":[30.375412016613083,60.008801985712658]},"properties":{"category":"stairs","name":{"ru":"Лестница","en":"Stairs"},"alt_name":{"ru":"Лестница","en":"Stairs"},"unit_ids":["b2210edb-5152-468a-896f-372dd71a65b2"],"hours":null,"phone":null,"website":null,"detailLevel":4,"address_id":null}},{"id":"11719428-12f0-4746-942c-7e0cdd0218cc","type":"Feature","feature_type":"amenity","geometry":{"type":"Point","coordinates":[30.374881130066662,60.008006654776018]},"properties":{"category":"stairs","name":{"ru":"Лестница","en":"Stairs"},"alt_name":{"ru":"Лестница","en":"Stairs"},"unit_ids":["6168ce0b-16d3-4c80-81bd-9dc61a3741c2"],"hours":null,"phone":null,"website":null,"detailLevel":4,"address_id":null}},{"id":"0a3a6ef2-dd8e-4e67-940f-e6c49fcb49be","type":"Feature","feature_type":"amenity","geometry":{"type":"Point","coordinates":[30.372235222645941,60.008460105737278]},"properties":{"category":"stairs","name":{"ru":"Лестница","en":"Stairs"},"alt_name":{"ru":"Лестница","en":"Stairs"},"unit_ids":["04ef7850-0c76-4d19-8028-f2448b96d807"],"hours":null,"phone":null,"website":null,"detailLevel":4,"address_id":null}},{"id":"3bfa9184-731e-4f19-84b3-167eeda930a8","type":"Feature","feature_type":"amenity","geometry":{"type":"Point","coordinates":[30.377582872320584,60.009195893395614]},"properties":{"category":"stairs","name":{"ru":"Лестница","en":"Stairs"},"alt_name":{"ru":"Лестница","en":"Stairs"},"unit_ids":["05158e81-c23f-4529-9684-30b6d5493c5d"],"hours":null,"phone":null,"website":null,"detailLevel":4,"address_id":null}},{"id":"ec1d7f1c-271a-4aba-bd60-40e0fb0e1bbe","type":"Feature","feature_type":"amenity","geometry":{"type":"Point","coordinates":[30.377897899912469,60.009665259231092]},"properties":{"category":"stairs","name":{"ru":"Лестница","en":"Stairs"},"alt_name":{"ru":"Лестница","en":"Stairs"},"unit_ids":["f58e4a49-220f-4396-ac5c-f3dd05ef6a3f"],"hours":null,"phone":null,"website":null,"detailLevel":4,"address_id":null}},{"id":"c989b42e-d3f3-4f31-bdda-e9beff17a56f","type":"Feature","feature_type":"amenity","geometry":{"type":"Point","coordinates":[30.377582097416386,60.009196413206119]},"properties":{"category":"stairs","name":{"ru":"Лестница","en":"Stairs"},"alt_name":{"ru":"Лестница","en":"Stairs"},"unit_ids":["d7d01ca2-e145-46c8-a2c1-26b2f9660832"],"hours":null,"phone":null,"website":null,"detailLevel":4,"address_id":null}},{"id":"a4916bc5-43bd-4f77-a392-1d2764076877","type":"Feature","feature_type":"amenity","geometry":{"type":"Point","coordinates":[30.377897899912469,60.009665259231092]},"properties":{"category":"stairs","name":{"ru":"Лестница","en":"Stairs"},"alt_name":{"ru":"Лестница","en":"Stairs"},"unit_ids":["325b7df4-1d61-4d81-b052-bbb7bf873897"],"hours":null,"phone":null,"website":null,"detailLevel":4,"address_id":null}},{"id":"c2ae373b-a602-432e-96cb-8aeb5c84e445","type":"Feature","feature_type":"amenity","geometry":{"type":"Point","coordinates":[30.379056056410025,60.008933310046771]},"properties":{"category":"stairs","name":{"ru":"Лестница","en":"Stairs"},"alt_name":{"ru":"Лестница","en":"Stairs"},"unit_ids":["bd26edc9-47c9-46c9-93f5-f576dff0dc0e"],"hours":null,"phone":null,"website":null,"detailLevel":4,"address_id":null}},{"id":"cc10e8f6-03c0-4869-a583-a780074532cb","type":"Feature","feature_type":"amenity","geometry":{"type":"Point","coordinates":[30.373056978739964,60.007501384690073]},"properties":{"category":"stairs","name":{"ru":"Главная лестница","en":"Main stairs"},"alt_name":{"ru":"Главная лестница","en":"Main stairs"},"unit_ids":["df5de287-0829-4932-8faa-f4490bf770c3"],"hours":null,"phone":null,"website":null,"detailLevel":4,"address_id":null}},{"id":"269c34e5-e665-42aa-a580-f8c195b03a57","type":"Feature","feature_type":"amenity","geometry":{"type":"Point","coordinates":[30.375076260110628,60.007469156438532]},"properties":{"category":"stairs","name":{"ru":"Лестница","en":"Stairs"},"alt_name":{"ru":"Лестница","en":"Stairs"},"unit_ids":["4916303a-6ee3-4055-839f-f4d6bb582eb0"],"hours":null,"phone":null,"website":null,"detailLevel":4,"address_id":null}},{"id":"e6196c42-d5f7-4c6c-b11d-1a34c47ad2d4","type":"Feature","feature_type":"amenity","geometry":{"type":"Point","coordinates":[30.371407335197606,60.008088195315288]},"properties":{"category":"stairs","name":{"ru":"Лестница","en":"Stairs"},"alt_name":{"ru":"Лестница","en":"Stairs"},"unit_ids":["84d508b5-1249-4041-bff3-23ed5d771b3f"],"hours":null,"phone":null,"website":null,"detailLevel":4,"address_id":null}},{"id":"0a1cd2cf-fb08-4031-8e82-8dfa48a8f9df","type":"Feature","feature_type":"amenity","geometry":{"type":"Point","coordinates":[30.370918389583814,60.007363912100942]},"properties":{"category":"stairs","name":{"ru":"Лестница","en":"Stairs"},"alt_name":{"ru":"Лестница","en":"Stairs"},"unit_ids":["b00edf9d-2d23-4411-bc04-21f41a17f88e"],"hours":null,"phone":null,"website":null,"detailLevel":4,"address_id":null}},{"id":"be1c20d2-60b3-456e-89af-7bf94b3f344b","type":"Feature","feature_type":"amenity","geometry":{"type":"Point","coordinates":[30.37458727876129,60.006744873224179]},"properties":{"category":"stairs","name":{"ru":"Лестница","en":"Stairs"},"alt_name":{"ru":"Лестница","en":"Stairs"},"unit_ids":["7977b9bd-291a-4f2e-b3d9-0c8980354013"],"hours":null,"phone":null,"website":null,"detailLevel":4,"address_id":null}},{"id":"a45f1f29-99fe-4fae-9801-c975866e9c8a","type":"Feature","feature_type":"amenity","geometry":{"type":"Point","coordinates":[30.37210693661061,60.007690155495581]},"properties":{"category":"stairs","name":{"ru":"Лестница","en":"Stairs"},"alt_name":{"ru":"Лестница","en":"Stairs"},"unit_ids":["acc16099-dd47-453f-b369-ee77c54d4c61"],"hours":null,"phone":null,"website":null,"detailLevel":4,"address_id":null}},{"id":"2124ae0c-6172-4a0b-9296-4dff6f02ee53","type":"Feature","feature_type":"amenity","geometry":{"type":"Point","coordinates":[30.374041531666055,60.007363740020061]},"properties":{"category":"stairs","name":{"ru":"Лестница","en":"Stairs"},"alt_name":{"ru":"Лестница","en":"Stairs"},"unit_ids":["fdc31285-bb32-4328-a2f5-9d950390c420"],"hours":null,"phone":null,"website":null,"detailLevel":4,"address_id":null}},{"id":"e6ce7dc5-c5fa-4b48-90ca-85240aaec13a","type":"Feature","feature_type":"amenity","geometry":{"type":"Point","coordinates":[30.373056978739964,60.007501384690073]},"properties":{"category":"stairs","name":{"ru":"Главная лестница","en":"Main stairs"},"alt_name":{"ru":"Главная лестница","en":"Main stairs"},"unit_ids":["ba4efc0b-4b91-4ecc-bc11-930250808f26"],"hours":null,"phone":null,"website":null,"detailLevel":4,"address_id":null}},{"id":"2d47cb2d-650e-41a9-810c-81d4b0e1f3ac","type":"Feature","feature_type":"amenity","geometry":{"type":"Point","coordinates":[30.375076260110628,60.007469156438532]},"properties":{"category":"stairs","name":{"ru":"Лестница","en":"Stairs"},"alt_name":{"ru":"Лестница","en":"Stairs"},"unit_ids":["322b5e24-d3f8-4b3e-a438-da3b45b6cda7"],"hours":null,"phone":null,"website":null,"detailLevel":4,"address_id":null}},{"id":"585711f8-5e14-48bd-b5cf-2de7d7c0b9d2","type":"Feature","feature_type":"amenity","geometry":{"type":"Point","coordinates":[30.371407335197606,60.008088195315288]},"properties":{"category":"stairs","name":{"ru":"Лестница","en":"Stairs"},"alt_name":{"ru":"Лестница","en":"Stairs"},"unit_ids":["73148e79-5be4-46a6-871d-3e12fc443362"],"hours":null,"phone":null,"website":null,"detailLevel":4,"address_id":null}},{"id":"cc564739-cbf2-48f6-a04b-881e50a08eed","type":"Feature","feature_type":"amenity","geometry":{"type":"Point","coordinates":[30.370918389583814,60.007363912100942]},"properties":{"category":"stairs","name":{"ru":"Лестница","en":"Stairs"},"alt_name":{"ru":"Лестница","en":"Stairs"},"unit_ids":["0f2ddb2c-60ad-4788-a4b8-1b9a028a78e2"],"hours":null,"phone":null,"website":null,"detailLevel":4,"address_id":null}},{"id":"b709b7a0-9594-429e-96f8-c0f4e9864006","type":"Feature","feature_type":"amenity","geometry":{"type":"Point","coordinates":[30.37458727876129,60.006744873224179]},"properties":{"category":"stairs","name":{"ru":"Лестница","en":"Stairs"},"alt_name":{"ru":"Лестница","en":"Stairs"},"unit_ids":["d2011ab9-6f0d-4c93-8b01-175b4fe8a4c6"],"hours":null,"phone":null,"website":null,"detailLevel":4,"address_id":null}},{"id":"9df31028-d081-4986-9bc9-fbc1fb85c469","type":"Feature","feature_type":"amenity","geometry":{"type":"Point","coordinates":[30.373273185768959,60.007617520347743]},"properties":{"category":"stairs","name":{"ru":"Лестница в читальном зале","en":"Stairs in reading hall"},"alt_name":{"ru":"Лестница","en":"Stairs"},"unit_ids":["bbeefeb6-2d44-4141-b856-00168a45ce69"],"hours":null,"phone":null,"website":null,"detailLevel":4,"address_id":null}},{"id":"1a6b9b37-e479-438f-8b12-910434796e2e","type":"Feature","feature_type":"amenity","geometry":{"type":"Point","coordinates":[30.374041531666055,60.007363740020061]},"properties":{"category":"stairs","name":{"ru":"Лестница","en":"Stairs"},"alt_name":{"ru":"Лестница","en":"Stairs"},"unit_ids":["c9ff9aa4-26c9-4259-96b1-cda83745cc36"],"hours":null,"phone":null,"website":null,"detailLevel":4,"address_id":null}},{"id":"3d051db9-7dd5-4459-901f-bf0f490c4bba","type":"Feature","feature_type":"amenity","geometry":{"type":"Point","coordinates":[30.37210693661061,60.007690155495581]},"properties":{"category":"stairs","name":{"ru":"Лестница","en":"Stairs"},"alt_name":{"ru":"Лестница","en":"Stairs"},"unit_ids":["98dbd444-0ac1-4c90-ae2e-e7e3f8af3268"],"hours":null,"phone":null,"website":null,"detailLevel":4,"address_id":null}},{"id":"3e894f50-d348-4107-8ea6-eb5532030ef0","type":"Feature","feature_type":"amenity","geometry":{"type":"Point","coordinates":[30.373273185768959,60.007617520347743]},"properties":{"category":"stairs","name":{"ru":"Лестница в читальном зале","en":"Stairs in reading hall"},"alt_name":{"ru":"Лестница","en":"Stairs"},"unit_ids":["a623e642-608b-439a-9aba-326fefaf2c1f"],"hours":null,"phone":null,"website":null,"detailLevel":4,"address_id":null}},{"id":"adc8dbc5-6374-4c86-b44c-45eb2805463c","type":"Feature","feature_type":"amenity","geometry":{"type":"Point","coordinates":[30.375076260110628,60.007469156438532]},"properties":{"category":"stairs","name":{"ru":"Лестница","en":"Stairs"},"alt_name":{"ru":"Лестница","en":"Stairs"},"unit_ids":["f3a3ad07-c259-4c81-9006-55b760d59f14"],"hours":null,"phone":null,"website":null,"detailLevel":4,"address_id":null}},{"id":"d65932f0-a41b-4cf9-874a-0ae7fdc7d6df","type":"Feature","feature_type":"amenity","geometry":{"type":"Point","coordinates":[30.371407335197606,60.008088195315288]},"properties":{"category":"stairs","name":{"ru":"Лестница","en":"Stairs"},"alt_name":{"ru":"Лестница","en":"Stairs"},"unit_ids":["6fccff77-882d-4538-b041-f6df39acbbec"],"hours":null,"phone":null,"website":null,"detailLevel":4,"address_id":null}},{"id":"426984d0-d006-4fff-9138-2c56e0a8c529","type":"Feature","feature_type":"amenity","geometry":{"type":"Point","coordinates":[30.370918389583814,60.007363912100942]},"properties":{"category":"stairs","name":{"ru":"Лестница","en":"Stairs"},"alt_name":{"ru":"Лестница","en":"Stairs"},"unit_ids":["b0e1bae5-bb40-478a-901f-c1913d39b92d"],"hours":null,"phone":null,"website":null,"detailLevel":4,"address_id":null}},{"id":"5e800526-3e6e-47e9-b657-594ab33c5a6f","type":"Feature","feature_type":"amenity","geometry":{"type":"Point","coordinates":[30.37458727876129,60.006744873224179]},"properties":{"category":"stairs","name":{"ru":"Лестница","en":"Stairs"},"alt_name":{"ru":"Лестница","en":"Stairs"},"unit_ids":["12b8c5c0-8485-4d28-aa87-3b471ffaf12d"],"hours":null,"phone":null,"website":null,"detailLevel":4,"address_id":null}},{"id":"ac4e697f-75b8-439f-aae5-e6634c422ab2","type":"Feature","feature_type":"amenity","geometry":{"type":"Point","coordinates":[30.374041531666055,60.007363740020061]},"properties":{"category":"stairs","name":{"ru":"Лестница","en":"Stairs"},"alt_name":{"ru":"Лестница","en":"Stairs"},"unit_ids":["55dac98e-cf6e-462b-8904-3c08d74be210"],"hours":null,"phone":null,"website":null,"detailLevel":4,"address_id":null}},{"id":"745e019f-0a70-442f-9c11-08c5d98ebc62","type":"Feature","feature_type":"amenity","geometry":{"type":"Point","coordinates":[30.37210693661061,60.007690155495581]},"properties":{"category":"stairs","name":{"ru":"Лестница","en":"Stairs"},"alt_name":{"ru":"Лестница","en":"Stairs"},"unit_ids":["e14dc8d9-ad3a-4860-a698-44427455e78f"],"hours":null,"phone":null,"website":null,"detailLevel":4,"address_id":null}}]}