{"type":"FeatureCollection","name":"attraction","features":[{"id":"979da633-9fbf-4b30-81ef-ca937b9e68d7","type":"Feature","feature_type":"attraction","geometry":{"type":"Point","coordinates":[30.379285247206212,60.006316361640394]},"properties":{"category":"building","name":{"ru":"Научно-исследовательский корпус","en":"Research & Development Centre"},"alt_name":{"ru":"Научно-исследовательский корпус","en":"Research & Development Centre"},"short_name":{"ru":"Н","en":"R"},"image":null,"authors":null,"building_id":"d46d5b2d-ff3d-467c-86a1-97cbb121d875"}},{"id":"09dce145-7faa-417d-9eaf-863571d8c969","type":"Feature","feature_type":"attraction","geometry":{"type":"Point","coordinates":[30.378080986818098,60.009052452042518]},"properties":{"category":"building","name":{"ru":"Учебный корпус №11","en":"11"},"alt_name":{"ru":"Учебный корпус №11","en":"11"},"short_name":{"ru":"11","en":"11"},"image":null,"authors":null,"building_id":"47f4da23-b950-43d6-9e6f-72915924a3a1"}},{"id":"9f1ea784-6f3d-44bf-978c-8ed0fcaefa95","type":"Feature","feature_type":"attraction","geometry":{"type":"Point","coordinates":[30.372960146096556,60.008778203970209]},"properties":{"category":"building","name":{"ru":"Учебный корпус №1","en":"1"},"alt_name":{"ru":"Учебный корпус №1","en":"1"},"short_name":{"ru":"1","en":"1"},"image":null,"authors":{"short_info":{"ru":"Планировка этого здания была перенесена студентами СПбПУ в рамках курса ОПД 2024."},"detail":{"title":{"ru":"Участники создания планировки для карты"},"description":{"ru":"Планировка данного здания для карты была создана студентами Санкт-Петербургского политехнического университета в рамках курса 'Основы проектной деятельности' в 2024 году. Студенты разработали детализированную схему, учитывающую основные архитектурные особенности и удобную для использования в приложении. Это было важным вкладом в проект по визуализации зданий университета на карте."},"authors":[{"ru":"Имя 1","en":"Name 1"},{"ru":"Имя 2","en":"Name 2"},{"ru":"Имя 3","en":"Name 3"},{"ru":"Имя 4","en":"Name 4"}]}},"building_id":"be154d0d-91f3-4f9e-ad94-a9b4769f8f8a"}},{"id":"57e54a8b-0c91-4169-91ec-2bff47ba52cd","type":"Feature","feature_type":"attraction","geometry":{"type":"Point","coordinates":[30.374688512627792,60.008485165324359]},"properties":{"category":"building","name":{"ru":"Учебный корпус №2","en":"2"},"alt_name":{"ru":"Учебный корпус №2","en":"2"},"short_name":{"ru":"2","en":"2"},"image":null,"authors":{"short_info":{"ru":"Планировка этого здания была перенесена студентами СПбПУ в рамках курса ОПД 2024."},"detail":{"title":{"ru":"Участники создания планировки для карты"},"description":{"ru":"Планировка данного здания для карты была создана студентами Санкт-Петербургского политехнического университета в рамках курса 'Основы проектной деятельности' в 2024 году. Студенты разработали детализированную схему, учитывающую основные архитектурные особенности и удобную для использования в приложении. Это было важным вкладом в проект по визуализации зданий университета на карте."},"authors":[{"ru":"Имя 1","en":"Name 1"},{"ru":"Имя 2","en":"Name 2"},{"ru":"Имя 3","en":"Name 3"},{"ru":"Имя 4","en":"Name 4"}]}},"building_id":"be154d0d-91f3-4f9e-ad94-a9b4769f8f8a"}},{"id":"1ab55698-078c-4160-beaf-a3ff272e5499","type":"Feature","feature_type":"attraction","geometry":{"type":"Point","coordinates":[30.381895790302451,60.005774022944912]},"properties":{"category":"building","name":{"ru":"Гидротехнический корпус 1"},"alt_name":{"ru":"Гидротехнический корпус 1"},"short_name":{"ru":"Г1"},"image":null,"authors":null,"building_id":"6ac21a55-26d6-4566-bae0-cad14e862a03"}},{"id":"33a9c8b5-7dfd-470f-8fd1-8364b2ec7dd7","type":"Feature","feature_type":"attraction","geometry":{"type":"Point","coordinates":[30.383591398872234,60.006569984158659]},"properties":{"category":"building","name":{"ru":"Гидротехнический корпус 2"},"alt_name":{"ru":"Гидротехнический корпус 2"},"short_name":{"ru":"Г2"},"image":null,"authors":null,"building_id":"6ac21a55-26d6-4566-bae0-cad14e862a03"}},{"id":"e789a832-13cf-4966-85fc-11058a312913","type":"Feature","feature_type":"attraction","geometry":{"type":"Point","coordinates":[30.36649882804058,60.000780443120668]},"properties":{"category":"building","name":{"ru":"Учебный корпус №9"},"alt_name":{"ru":"Учебный корпус №9"},"short_name":{"ru":"9","en":"9"},"image":null,"authors":null,"building_id":"db902d27-91d3-4e2e-acf2-a57479588216"}},{"id":"160d18a2-554f-4bc9-be74-b7fdd54cb07b","type":"Feature","feature_type":"attraction","geometry":{"type":"Point","coordinates":[30.372964363223929,60.00736419698125]},"properties":{"category":"building","name":{"ru":"Главное учебное здание","en":"Main academic building"},"alt_name":{"ru":"Главное здание","en":"Main academic building"},"short_name":{"ru":"ГЗ","en":"MB"},"image":null,"authors":null,"building_id":"5f4874a1-38e7-43ad-b8b0-23e375d9208e"}},{"id":"d98032cb-ee57-4aec-8d71-2d78c8843efe","type":"Feature","feature_type":"attraction","geometry":{"type":"Point","coordinates":[30.374088729960452,60.005539558215851]},"properties":{"category":"building","name":{"ru":"Гидробашня","en":"Water supply tower"},"alt_name":{"ru":"Гидробашня","en":"Water supply tower"},"short_name":null,"image":"Gydro","authors":null,"building_id":"eb8b5262-5b5d-4ae5-b863-533886cacaee"}},{"id":"2fff70f4-b610-43ce-8023-85fd26cddade","type":"Feature","feature_type":"attraction","geometry":{"type":"Point","coordinates":[30.381727344058881,60.007233741285077]},"properties":{"category":"building","name":{"ru":"Учебный корпус №3","en":"Academic building №3"},"alt_name":{"ru":"Учебный корпус №3","en":"Academic building №3"},"short_name":{"ru":"3","en":"3"},"image":null,"authors":null,"building_id":"29902a1f-8ef6-492e-a69f-a26e36cccd69"}},{"id":"1f2ce0db-df8e-4216-94db-b4c95e8ce37d","type":"Feature","feature_type":"attraction","geometry":{"type":"Point","coordinates":[30.376788498360686,60.007193069543412]},"properties":{"category":"building","name":{"ru":"Учебный корпус №4","en":"Academic building №4"},"alt_name":{"ru":"Учебный корпус №4","en":"Academic building №4"},"short_name":{"ru":"4","en":"4"},"image":null,"authors":null,"building_id":"4c0a569f-4d99-4080-bd8f-4cdda3bdaa23"}},{"id":"d25344c4-894c-4d30-8fba-7e62067b3629","type":"Feature","feature_type":"attraction","geometry":{"type":"Point","coordinates":[30.374873343554043,59.999648602394608]},"properties":{"category":"building","name":{"ru":"Учебный корпус №5","en":"Academic building №5"},"alt_name":{"ru":"Учебный корпус №5","en":"Academic building №5"},"short_name":{"ru":"5","en":"5"},"image":null,"authors":null,"building_id":"3aa32e77-3dec-4839-a07c-08d3c89f7ebf"}},{"id":"e558145e-4398-48eb-9e95-1c2fe34af8a2","type":"Feature","feature_type":"attraction","geometry":{"type":"Point","coordinates":[30.367513784420819,60.000074213578472]},"properties":{"category":"building","name":{"ru":"Учебный корпус №6","en":"Academic building №6"},"alt_name":{"ru":"Учебный корпус №6","en":"Academic building №6"},"short_name":{"ru":"6","en":"6"},"image":null,"authors":null,"building_id":"553c1ae9-6ecb-4ba9-b3c8-9093f0ae02b1"}},{"id":"9006b974-d221-4c55-9bb7-79bd2f5904b9","type":"Feature","feature_type":"attraction","geometry":{"type":"Point","coordinates":[30.36894329310616,60.002768708642144]},"properties":{"category":"building","name":{"ru":"Спорткомплекс «Политехник»","en":"Sport facilities “Polytechnic\""},"alt_name":{"ru":"Политехник","en":"Polytechnic"},"short_name":{"ru":"СК","en":"SF"},"image":null,"authors":null,"building_id":"71036c82-9a01-43a7-b782-17f2f622176a"}},{"id":"239758ea-62ae-463e-8c5f-deb4157c92a9","type":"Feature","feature_type":"attraction","geometry":{"type":"Point","coordinates":[30.376381787968207,60.006608666403821]},"properties":{"category":"building","name":{"ru":"Химический корпус","en":"Chemistry academic building"},"alt_name":{"ru":"Химический корпус","en":"Chemistry academic building"},"short_name":{"ru":"Х","en":"С"},"image":null,"authors":null,"building_id":"4c0a569f-4d99-4080-bd8f-4cdda3bdaa23"}},{"id":"da860584-6ec3-40af-a6ae-523d7aae17c8","type":"Feature","feature_type":"attraction","geometry":{"type":"Point","coordinates":[30.371691505218092,60.009424590807868]},"properties":{"category":"building","name":{"ru":"Бюро пропусков","en":"Pass office"},"alt_name":{"ru":"Бюро пропусков","en":"Pass office"},"short_name":{"ru":"Б","en":"P"},"image":null,"authors":null,"building_id":"a8f3d0b2-fa84-40df-94e1-d31c7321038d"}},{"id":"698470c0-cb18-4ac6-a722-b99cd42b3ea1","type":"Feature","feature_type":"attraction","geometry":{"type":"Point","coordinates":[30.37613938394291,60.008247961023748]},"properties":{"category":"building","name":{"ru":"Механический корпус","en":"Mechanical workshop"},"alt_name":{"ru":"Механический корпус","en":"Mechanical workshop"},"short_name":{"ru":"М","en":"M"},"image":null,"authors":null,"building_id":"64978331-3cdb-4126-a59d-5bfc314df882"}},{"id":"de9e273b-b3a5-4182-9876-a80d8961e34f","type":"Feature","feature_type":"attraction","geometry":{"type":"Point","coordinates":[30.379813873658971,60.007354615342138]},"properties":{"category":"building","name":{"ru":"Лабораторно-аудиторный корпус","en":"Training and laboratory rooms building"},"alt_name":{"ru":"Лабораторно-аудиторный корпус","en":"Training and laboratory rooms building"},"short_name":{"ru":"Л","en":"L"},"image":null,"authors":null,"building_id":"6cb0d648-c5e9-42ae-92fd-cab2f3884c31"}},{"id":"5c27265b-f742-4ffd-b86c-1edc80d260af","type":"Feature","feature_type":"attraction","geometry":{"type":"Point","coordinates":[30.369639478788788,60.000576016522835]},"properties":{"category":"building","name":{"ru":"Учебный корпус №10","en":"Academic building №10"},"alt_name":{"ru":"Учебный корпус №10","en":"Academic building №10"},"short_name":{"ru":"10","en":"10"},"image":null,"authors":null,"building_id":"553c1ae9-6ecb-4ba9-b3c8-9093f0ae02b1"}}]}