{"type":"FeatureCollection","name":"building","features":[{"id":"be154d0d-91f3-4f9e-ad94-a9b4769f8f8a","type":"Feature","feature_type":"building","geometry":{"type":"Polygon","coordinates":[[[30.373683065785027,60.008189719192877],[30.373778581446214,60.008334011344587],[30.374095619696106,60.008280519714496],[30.374059952687652,60.008227690060622],[30.37437358090834,60.008174773131266],[30.374433409613115,60.00826339121722],[30.374327730463389,60.008281221760583],[30.374374903247361,60.008351093734071],[30.374129454547415,60.008392506768338],[30.374174326100615,60.008458970607251],[30.374382275963487,60.008423884221266],[30.374412190139822,60.008468193264243],[30.374555368623174,60.008444036072596],[30.374562271983287,60.008454261025243],[30.37411228165821,60.008530185195852],[30.374104227947452,60.008518255901464],[30.373988321183138,60.008537812193758],[30.373981417903039,60.00852758669221],[30.373565516879339,60.008597758915279],[30.373572420102466,60.008607984416827],[30.373456513023694,60.008627540160219],[30.373464566630943,60.008639469454607],[30.373017982568538,60.008714818375573],[30.372959306010959,60.008627904082466],[30.373068395683848,60.008609498289459],[30.372995912626592,60.008502134639961],[30.372886823110608,60.008520540432968],[30.372829297275654,60.0084353304816],[30.373144632122191,60.008382125927433],[30.373178594648408,60.008435243206129],[30.37349904235559,60.008381176326395],[30.373402951904218,60.008236031729361],[30.37199672932654,60.008473294213616],[30.372096822428727,60.00862155932041],[30.372418976861987,60.008567204815854],[30.372418976861987,60.008567204815854],[30.372418976861987,60.008567204815854],[30.372381010302533,60.008510966478489],[30.372645210436907,60.008466390120077],[30.372833895040532,60.008745878014054],[30.372808326674132,60.008750191837478],[30.372869901388686,60.008844210024577],[30.37290058269814,60.008839033875581],[30.373090420114945,60.009120226111293],[30.372833035832908,60.009163652519319],[30.372796794299514,60.00910997042012],[30.3724814557032,60.009163174425389],[30.372577524445166,60.009305474610535],[30.373965012899774,60.009071375999326],[30.373868365894349,60.008928223368855],[30.373345076696324,60.009016513760109],[30.3733312705117,60.008996063854816],[30.373307109091542,60.008960275422744],[30.373250733003676,60.008876769813121],[30.373139938819751,60.008895463230957],[30.373081261667167,60.00880854893785],[30.373527846290333,60.008733200016884],[30.3735359001978,60.008745129860174],[30.374183616141906,60.008635845601411],[30.374175562130919,60.008623915758122],[30.37462555302103,60.008547991587513],[30.374660069951432,60.008599117997456],[30.374550981287584,60.008617523790463],[30.374671790839965,60.0087964643041],[30.374780879765318,60.008778058511091],[30.374815396935848,60.008829184372125],[30.374498356912685,60.008882676002223],[30.374461538556474,60.0088281414577],[30.374144498252129,60.00888163363669],[30.37424114578711,60.009024786267162],[30.374450801785635,60.008989412256355],[30.37462807194418,60.008959503117168],[30.374807046331508,60.00892930635316],[30.375004770464464,60.008895945716105],[30.375142836224374,60.008872650850023],[30.375253629529521,60.008853957432194],[30.37533544604166,60.008840153087434],[30.375437716771064,60.008822897793713],[30.3755331696416,60.008806792450386],[30.375632030955021,60.008790112406309],[30.375596362444611,60.008737282203526],[30.375564720987661,60.008690416922391],[30.375536531478573,60.00864866411758],[30.375226311253069,60.008701005248383],[30.375261979448346,60.008753835451166],[30.375002893358459,60.008797549484008],[30.374814199442362,60.008518061041137],[30.374841471691944,60.008513459592884],[30.374777039678886,60.008418024688872],[30.37474976746417,60.008422626137119],[30.374561075687218,60.008143138243149],[30.374823568241037,60.008098849509565],[30.374860386215286,60.008153383505181],[30.375180831731225,60.008099316625447],[30.375081882933944,60.007952755585947],[30.373683065785027,60.008189719192877]]]},"properties":{"name":{"ru":"1-2 корпус"},"alt_name":{"ru":"1-2"},"category":"unspecified","restriction":null,"rotation":18.65,"display_point":{"type":"Point","coordinates":[30.373740059202003,60.008583495688171]},"address_id":"d7a1d475-60fd-48d0-a609-a81796f95ecf"}},{"id":"47f4da23-b950-43d6-9e6f-72915924a3a1","type":"Feature","feature_type":"building","geometry":{"type":"Polygon","coordinates":[[[30.37739272205452,60.009091750705],[30.377495569497583,60.009235732726893],[30.378130898448273,60.009122325662716],[30.378433396539162,60.0095457999698],[30.377772650749037,60.009663743162854],[30.377875499359533,60.00980772408694],[30.378841206249049,60.009635346249588],[30.378435855460932,60.009067889920615],[30.379172833430705,60.008936338340938],[30.379069982802136,60.008792357416844],[30.37739272205452,60.009091750705]]]},"properties":{"name":{"ru":"Учебный корпус 11"},"alt_name":{"ru":"11"},"category":"unspecified","restriction":null,"rotation":19.65,"display_point":{"type":"Point","coordinates":[30.37835960541069,60.009215193350521]},"address_id":"08a0fe44-1795-47f1-bd83-2d7ed4d97042"}},{"id":"6ac21a55-26d6-4566-bae0-cad14e862a03","type":"Feature","feature_type":"building","geometry":{"type":"Polygon","coordinates":[[[30.383978599262218,60.007064669486475],[30.383910704112424,60.00696412210614],[30.384043649810437,60.006941689840076],[30.38345215739092,60.006065733109892],[30.383302168816364,60.00609104107528],[30.383275701302221,60.006051844508633],[30.383337060246213,60.006041491387293],[30.383039019049267,60.005600104475945],[30.383069698058179,60.005594927915268],[30.383038628516658,60.005548914667784],[30.382967044382188,60.005560993400827],[30.382959032394698,60.005554751969633],[30.382949316416578,60.005548797751587],[30.382937895899257,60.005543131295582],[30.382924771392013,60.005537752738853],[30.382924771392013,60.005537752738853],[30.382905381853782,60.0055315324404],[30.382893983094213,60.005528709847383],[30.382879176351992,60.005526462504008],[30.382864943394015,60.00552506705705],[30.382847302452866,60.00552424699697],[30.382832516363671,60.005524843791029],[30.382805246451138,60.005529445102056],[30.381898505837892,60.00568244339366],[30.381880094629594,60.0056551761214],[30.381753968981911,60.005676457888178],[30.381772380144145,60.005703725160437],[30.380984943351041,60.005836592184551],[30.380973436827119,60.005819550139393],[30.380881398981302,60.005835079958629],[30.380892905484213,60.005852122003787],[30.380814502395843,60.005865351098905],[30.380873186824239,60.00595226484311],[30.380920911218617,60.00594421244589],[30.38095888384,60.006000450783255],[30.381565654595786,60.005898068696872],[30.381569106547328,60.00590318144765],[30.381804314851088,60.005863493613411],[30.38194124918677,60.006066292990276],[30.381924204696034,60.006069168964046],[30.382017412406753,60.00620720884374],[30.382310571614973,60.006157743137805],[30.382287557778277,60.006123659321929],[30.382314827422796,60.006119057873676],[30.382282607854233,60.00607134042167],[30.3823576017796,60.0060586865762],[30.382319627935523,60.006002447689937],[30.382200319993409,60.006022579231882],[30.382066837488846,60.005824892605787],[30.382302045215621,60.005785205046],[30.382295140663135,60.0057749798189],[30.382905315822359,60.005672022482877],[30.382974359534089,60.00577427420496],[30.382858460749372,60.0057938302228],[30.383055235909296,60.006085247960065],[30.38304160057125,60.006087548684192],[30.383064614783923,60.006121632500069],[30.383238465077845,60.006092298336071],[30.383244219478026,60.00610081922143],[30.382603359918534,60.006208953255353],[30.382744900361143,60.006418569175828],[30.383273269590262,60.006329416184563],[30.383390645886323,60.006503244496322],[30.382862275426888,60.006592397487594],[30.383003817510556,60.006802013408077],[30.383532189453607,60.006712860416805],[30.383649567110535,60.006886688454117],[30.383121193937153,60.006975841445389],[30.38326158676238,60.007183753024123],[30.383262737661909,60.007185457365864],[30.383978599262218,60.007064669486475]]]},"properties":{"name":{"ru":"Гидротехнический корпус","en":"Гидротехнический корпус"},"alt_name":{"ru":"ГК"},"category":"unspecified","restriction":null,"rotation":0.0,"display_point":{"type":"Point","coordinates":[30.382549928160053,60.00605293600092]},"address_id":"ae015325-0dcb-42da-a9ca-432f44d1d6e9"}},{"id":"db902d27-91d3-4e2e-acf2-a57479588216","type":"Feature","feature_type":"building","geometry":{"type":"Polygon","coordinates":[[[30.366554386464959,60.001135697101375],[30.367180899818894,60.0010538148704],[30.367108127952854,60.000914601437515],[30.3667252585486,60.000964640471942],[30.366697969596526,60.000912435468912],[30.366732775654832,60.000907886440835],[30.366578136915486,60.000612057998879],[30.366543330453254,60.000616607026963],[30.366516040690431,60.000564402023933],[30.366881504742789,60.000516637091877],[30.366808732450821,60.000377423933443],[30.366199628244772,60.000457031787612],[30.366554386464959,60.001135697101375]]]},"properties":{"name":{"ru":"Учебный корпус 9"},"alt_name":{"ru":"9"},"category":"unspecified","restriction":null,"rotation":0.0,"display_point":{"type":"Point","coordinates":[30.366707665082007,60.000753148677738]},"address_id":"93199939-edeb-4a7a-afdd-5e380557e46b"}},{"id":"5f4874a1-38e7-43ad-b8b0-23e375d9208e","type":"Feature","feature_type":"building","geometry":{"type":"Polygon","coordinates":[[[30.374175650186686,60.006662461028],[30.374279197142954,60.006815838611118],[30.374326069834147,60.006807929751865],[30.374481391450647,60.007037996126542],[30.374051012151885,60.007110612886144],[30.374039506918322,60.007093571115433],[30.374005417542307,60.007099322514073],[30.373986721528752,60.007071629568053],[30.37373105042823,60.007114768351251],[30.373749746346938,60.007142461297271],[30.373715656646027,60.007148213244811],[30.373727161805657,60.007165255015522],[30.373262691335871,60.007243623722673],[30.373189346617878,60.007134981405187],[30.373061510726856,60.007156550522339],[30.373073015719402,60.00717359229305],[30.372646895291737,60.0072454899906],[30.372635390396475,60.007228448219891],[30.372507554144168,60.00725001761149],[30.372580898007126,60.007358659928975],[30.372116424821158,60.007437028361664],[30.372104919754769,60.007419986316506],[30.372070829767793,60.007425738264047],[30.372052134471943,60.007398045043573],[30.371796460848024,60.007441183552324],[30.371815156049035,60.007468876498343],[30.371781066011664,60.007474628445884],[30.371792571004118,60.007491670491049],[30.371362186076045,60.007564287250652],[30.371206873798485,60.007334220875975],[30.371253747224376,60.007326312016723],[30.371150206758905,60.007172934433605],[30.370758173981788,60.007239080458064],[30.370861713641744,60.007392458041181],[30.370917109804672,60.007383111332267],[30.371072421189158,60.007613177706943],[30.370970151191408,60.007630433000664],[30.3711254627921,60.00786049937534],[30.371227733105055,60.00784324408162],[30.371383046375854,60.008073310730744],[30.371327649700717,60.008082657439658],[30.371431192276173,60.008236035022776],[30.371823230289177,60.008169888998317],[30.371719686908193,60.0080165114152],[30.371672813048914,60.008024420000005],[30.371459975445624,60.007709143948411],[30.371907406539776,60.007633651215038],[30.371970683030323,60.007727382051762],[30.371883111672236,60.007808598189754],[30.371946388295715,60.007902329026479],[30.372104532746569,60.007939714489879],[30.372121790209341,60.007965277145949],[30.372428600694413,60.007913510990342],[30.372411343126583,60.007887948059818],[30.37249182873401,60.007810300061436],[30.372428551425649,60.007716569224712],[30.372260447204571,60.00767849159547],[30.372197170350184,60.007584760758746],[30.372806526428118,60.007481947235135],[30.373150240742877,60.007991075555573],[30.373278078217837,60.007969506438421],[30.373298212235149,60.007999329674391],[30.373355206398646,60.008013442776708],[30.373440431283981,60.007999063182311],[30.373468662231677,60.00797057048559],[30.373448528146266,60.00794074724962],[30.373576365426686,60.007919178132468],[30.37323264820558,60.007410049537583],[30.373842000789988,60.007307236013965],[30.373905279709707,60.007400966850689],[30.373831773862936,60.007460826845637],[30.373903681666061,60.00756733914762],[30.373920726617087,60.00756446317385],[30.373966747792103,60.00763263108005],[30.374077539352573,60.007613937662221],[30.374089044686443,60.007630979707386],[30.374327672884689,60.007590717172405],[30.374316167496342,60.00757367512724],[30.374426958859306,60.007554981709411],[30.374424082712697,60.007550721129512],[30.374739412059188,60.007497516849789],[30.374848714260725,60.007659415592713],[30.375240745301262,60.0075932698427],[30.375137194898315,60.007439892259583],[30.375081799421405,60.007449238968505],[30.374615828788581,60.006759039570028],[30.374671223753307,60.006749692861106],[30.37456767599156,60.006596315277996],[30.374175650186686,60.006662461028]],[[30.374579187010422,60.0071828528243],[30.374743139419657,60.007425700664236],[30.374397982173551,60.007483937829441],[30.374326073665127,60.007377425527459],[30.37419504157306,60.0073520763944],[30.374131762289508,60.007258345557673],[30.374579187010422,60.0071828528243]]]},"properties":{"name":{"ru":"Главный учебный корпус","en":"Main academic building"},"alt_name":{"ru":"Главный учебный корпус","en":"Главный учебный корпус"},"category":"unspecified","restriction":null,"rotation":18.65,"display_point":{"type":"Point","coordinates":[30.372969252884062,60.007371439747523]},"address_id":"c4784091-ab99-4438-b68d-28ab3e062847"}},{"id":"d46d5b2d-ff3d-467c-86a1-97cbb121d875","type":"Feature","feature_type":"building","geometry":{"type":"Polygon","coordinates":[[[30.3796507034326,60.005731154084437],[30.379826752784776,60.005991896140408],[30.37932224394741,60.00607702293307],[30.379270465003504,60.006000334141511],[30.378915944585383,60.006060152968786],[30.378965826826345,60.0061343140651],[30.378462167534728,60.006219297045355],[30.37828842418191,60.005961963672867],[30.377968102711126,60.006015632323965],[30.378540276323861,60.006859147554046],[30.378766967707719,60.00682089811837],[30.378820472880346,60.006900143148087],[30.378941488575784,60.006879723981328],[30.378939187284629,60.006876315572292],[30.37944847971459,60.006790952477175],[30.379457684973723,60.006804586113304],[30.379744031497331,60.006756270906664],[30.3797348261859,60.006742637270527],[30.380250477844669,60.006656010602242],[30.380252779470219,60.006659419011278],[30.380366977059481,60.006640150343806],[30.380314045101755,60.006561757210505],[30.380544824601206,60.00652281753014],[30.379973518855429,60.005676684310387],[30.3796507034326,60.005731154084437]],[[30.378569286903286,60.0063773891506],[30.379066981241124,60.006293412857232],[30.37930286355153,60.006642772724696],[30.378909597572758,60.006709887836223],[30.378752096927062,60.006479427349674],[30.378649830685607,60.006496682643395],[30.378569286903286,60.0063773891506]],[[30.379671022300251,60.006580653173295],[30.379435137992409,60.006231293305831],[30.379929421815962,60.006147891987645],[30.379966077102349,60.006202181172824],[30.380009967771798,60.006267185480439],[30.379911110784118,60.006283865524509],[30.380066450870164,60.006513931899185],[30.379671022300251,60.006580653173295]]]},"properties":{"name":{"ru":"Научно Исследовательский Комплекс"},"alt_name":{"ru":"НИК"},"category":"unspecified","restriction":null,"rotation":18.65,"display_point":{"type":"Point","coordinates":[30.379309368926346,60.006314969898526]},"address_id":"59f1c799-10f8-4053-887b-a8069f2c1414"}},{"id":"ca6fab46-929e-4115-ac11-aac99d66ebb2","type":"Feature","feature_type":"building","geometry":{"type":"Polygon","coordinates":[[[30.377266777295777,60.004948741838639],[30.377215001892569,60.004872052909853],[30.377325787911364,60.004853359492024],[30.377210731331729,60.004682940000968],[30.376895417527376,60.004736144280692],[30.376942878032029,60.004806442339614],[30.376925833923082,60.004809318176164],[30.376960350680474,60.0048604440372],[30.376977394801095,60.004857568200656],[30.37728362649927,60.005297090902459],[30.377266582278718,60.00529996687623],[30.377306852577405,60.00535961375985],[30.377323896537089,60.00535673778608],[30.377375672720412,60.005433426577639],[30.377673945375275,60.005383098271686],[30.377515740299426,60.00514877131711],[30.3774134755182,60.00516602674805],[30.377341564536728,60.005059514583294],[30.377554615411235,60.005023565734518],[30.377583379732929,60.005066170572981],[30.377787908570141,60.005031659711086],[30.377759143857233,60.004989054872631],[30.377980716191058,60.004951668036973],[30.378113034264864,60.005147650458547],[30.378078945971403,60.00515340226886],[30.378173870195937,60.005293998523939],[30.378063083678818,60.005312691941775],[30.378129242963585,60.005410683221172],[30.378649088142325,60.005322968079561],[30.378582928175192,60.005224976800164],[30.37848918549393,60.005240794244223],[30.378417272973532,60.00513428194224],[30.3783831849879,60.005140033752554],[30.378227854257364,60.004909967377877],[30.378433093930074,60.004873784696713],[30.378461147098008,60.004918061354445],[30.378674196633991,60.004882112505669],[30.3786439932651,60.004837377377264],[30.378848520567061,60.004802866515377],[30.378924748452707,60.004915769412762],[30.378813962781251,60.00493446283059],[30.378969295607838,60.005164529342487],[30.379293131828433,60.005109887075882],[30.379238477328293,60.005028937704424],[30.379255521118793,60.005026061730653],[30.379218126157838,60.004970675426932],[30.3792010821055,60.0049735514007],[30.378901922852023,60.004530460490678],[30.378918966803205,60.004527584585524],[30.378881572131366,60.004472198213193],[30.378864528192828,60.004475074118353],[30.378808436595936,60.004391994525548],[30.378497386381756,60.004444479811823],[30.378621128920756,60.004634790631442],[30.378723392291185,60.004617535200495],[30.378775169518402,60.004694224060664],[30.377266777295777,60.004948741838639]]]},"properties":{"name":null,"alt_name":null,"category":"unspecified","restriction":null,"rotation":0.0,"display_point":{"type":"Point","coordinates":[30.37807115199611,60.004874712341653]},"address_id":"c4784091-ab99-4438-b68d-28ab3e062847"}},{"id":"5a4f2f66-1b8e-4cc7-9ea5-745121312b07","type":"Feature","feature_type":"building","geometry":{"type":"Polygon","coordinates":[[[30.369517476415773,60.004944086323505],[30.369411067452422,60.004786448297708],[30.3691127914757,60.004836776603661],[30.369397506549966,60.005258565094458],[30.369687262360163,60.005209674638166],[30.369598108573598,60.005077599405666],[30.370419114124633,60.004943816400782],[30.370496872041567,60.005073069040264],[30.370803670383395,60.00502130274743],[30.370518947089582,60.004599514188023],[30.370220672249726,60.004649842562586],[30.370327082922689,60.0048074807256],[30.369517476415773,60.004944086323505]]]},"properties":{"name":null,"alt_name":null,"category":"unspecified","restriction":null,"rotation":0.0,"display_point":{"type":"Point","coordinates":[30.369949759965227,60.004937587182667]},"address_id":"c4784091-ab99-4438-b68d-28ab3e062847"}},{"id":"eb8b5262-5b5d-4ae5-b863-533886cacaee","type":"Feature","feature_type":"building","geometry":{"type":"Polygon","coordinates":[[[30.373711785203326,60.0049150197494],[30.373701079608058,60.004897843085935],[30.373632902917134,60.004909346706569],[30.373644407666035,60.004926388614507],[30.373542142493225,60.004943644045454],[30.373881534769808,60.00544638190771],[30.373745180090417,60.005469389148971],[30.373894744068064,60.005690934638288],[30.374027630353297,60.005668512664144],[30.374051232739767,60.005697750770224],[30.374034294851757,60.005714846058915],[30.374031631824728,60.0057390243833],[30.3740403670802,60.005766025437936],[30.374066146830298,60.005790150244344],[30.374094696196664,60.005804316452959],[30.374131767958108,60.005817044400246],[30.3741944061964,60.00582545866132],[30.374268336267381,60.005822476063273],[30.374308071003242,60.005811025686171],[30.37435345162346,60.005793877153955],[30.374381681236709,60.005765384868909],[30.374389990164079,60.005735508114959],[30.374381254769922,60.005708507197554],[30.374358351135005,60.0056886426966],[30.374326925566265,60.00567021618253],[30.374289853849561,60.005657488098024],[30.374269720097967,60.005627664724827],[30.374406074852558,60.005604657483566],[30.374072430223617,60.00511044064389],[30.373970164740669,60.00512769607483],[30.373814849456412,60.004897629562933],[30.373711785203326,60.0049150197494]]]},"properties":{"name":null,"alt_name":null,"category":"unspecified","restriction":null,"rotation":0.0,"display_point":{"type":"Point","coordinates":[30.373885582793452,60.005227392107649]},"address_id":"c4784091-ab99-4438-b68d-28ab3e062847"}},{"id":"f7a0a0ce-9700-4018-b472-2625c2895012","type":"Feature","feature_type":"building","geometry":{"type":"Polygon","coordinates":[[[30.370700691203123,60.008764100473684],[30.370717948338417,60.0087896634042],[30.370547494760608,60.0088184220441],[30.370607893948595,60.008907892575365],[30.370548235583925,60.008917958346338],[30.370594254499451,60.00898612597809],[30.370653912918602,60.008976060207118],[30.370711436421342,60.009061270158483],[30.370847799629274,60.009038263466124],[30.370873685118056,60.009076607587453],[30.371086752447127,60.009040658327],[30.371057990581672,60.008998053625774],[30.371177307831164,60.008977922632731],[30.371134164863086,60.008914015031984],[30.371219391666166,60.008899635437579],[30.371147486599998,60.008793123135604],[30.371062259918528,60.00880750273],[30.371016240919449,60.008739335098248],[30.370854310435156,60.00876665616294],[30.370837053253162,60.008741093232423],[30.370700691203123,60.008764100473684]]]},"properties":{"name":null,"alt_name":null,"category":"unspecified","restriction":null,"rotation":0.0,"display_point":{"type":"Point","coordinates":[30.3708523869918,60.008890370515111]},"address_id":"c4784091-ab99-4438-b68d-28ab3e062847"}},{"id":"a8f3d0b2-fa84-40df-94e1-d31c7321038d","type":"Feature","feature_type":"building","geometry":{"type":"Polygon","coordinates":[[[30.371314397492398,60.009434114812237],[30.371328778735137,60.009455417162854],[30.371294688180605,60.009461169110395],[30.371329203012902,60.009512294971437],[30.371363293590782,60.009506543023896],[30.371389179836143,60.009544887694126],[30.3716448618576,60.009501748910921],[30.37163048050299,60.00948044656031],[30.372073661939961,60.009405672888988],[30.372013260040188,60.009316202357716],[30.371314397492398,60.009434114812237]]]},"properties":{"name":null,"alt_name":null,"category":"unspecified","restriction":null,"rotation":0.0,"display_point":{"type":"Point","coordinates":[30.371666917547,60.009407858069174]},"address_id":"c4784091-ab99-4438-b68d-28ab3e062847"}},{"id":"568c1d78-7548-42f3-85f0-35925680f763","type":"Feature","feature_type":"building","geometry":{"type":"Polygon","coordinates":[[[30.369287692523233,60.0096241942009],[30.369379728284482,60.00976053001331],[30.36977177793408,60.009694384537752],[30.36990695685493,60.009894627402005],[30.370179687171916,60.009848612919484],[30.370044506421397,60.009648370055231],[30.370445077414857,60.009580785906657],[30.370358791916065,60.009452971254063],[30.369287692523233,60.0096241942009]]]},"properties":{"name":null,"alt_name":null,"category":"unspecified","restriction":null,"rotation":0.0,"display_point":{"type":"Point","coordinates":[30.369833678982719,60.009603262908264]},"address_id":"c4784091-ab99-4438-b68d-28ab3e062847"}},{"id":"4b61c294-f8ac-4e51-bb41-2d7defd8c367","type":"Feature","feature_type":"building","geometry":{"type":"Polygon","coordinates":[[[30.371671025410159,60.008528015933834],[30.371694175970642,60.008562308058146],[30.371680581992038,60.008570296782686],[30.371673806408356,60.008577135007947],[30.371670727267247,60.008583823931765],[30.371669927832183,60.008591077127186],[30.371671099727,60.008595625331914],[30.371675147636964,60.008604434116542],[30.371680878947139,60.008610111413368],[30.371687739339798,60.008614648640048],[30.371696879990285,60.008619750138323],[30.37170657441003,60.008622860767836],[30.37171569269368,60.008625118403131],[30.371724236762255,60.008626524690904],[30.371738469878078,60.008627920000635],[30.371766656980803,60.008669672805446],[30.37209223387751,60.008614833071228],[30.371996868767329,60.008473421558953],[30.371671025410159,60.008528015933834]]]},"properties":{"name":null,"alt_name":null,"category":"unspecified","restriction":null,"rotation":0.0,"display_point":{"type":"Point","coordinates":[30.37179414623947,60.008541644080942]},"address_id":"c4784091-ab99-4438-b68d-28ab3e062847"}},{"id":"ce20941d-16a5-46fe-8c0a-2355322864e9","type":"Feature","feature_type":"building","geometry":{"type":"Polygon","coordinates":[[[30.370140314085294,60.005318315583395],[30.370238097733306,60.005463172281154],[30.370408542250534,60.00543441322958],[30.370310758271774,60.005289556531821],[30.370140314085294,60.005318315583395]]]},"properties":{"name":null,"alt_name":null,"category":"unspecified","restriction":null,"rotation":0.0,"display_point":{"type":"Point","coordinates":[30.3702058273961,60.005330990424376]},"address_id":"c4784091-ab99-4438-b68d-28ab3e062847"}},{"id":"fe81b88e-0cac-4241-bc57-17efc7175acc","type":"Feature","feature_type":"building","geometry":{"type":"Polygon","coordinates":[[[30.377163452640758,60.006145517161706],[30.377333165082128,60.006396885887],[30.3765973774936,60.006516289434707],[30.376582995193107,60.006494986809635],[30.376088704830952,60.006578388127821],[30.376103086990394,60.006599690752886],[30.375370171233893,60.0067233548805],[30.375203341838866,60.006476246460657],[30.374981762828309,60.006513633021868],[30.375539780641194,60.0073401679583],[30.375803973833076,60.007295591599892],[30.375769456698734,60.00724446573885],[30.375752412047795,60.007247341438166],[30.375622973244393,60.007055619459273],[30.375597406262251,60.007059933557152],[30.375442080849783,60.006829866908028],[30.375706272069305,60.006785290275168],[30.375893239024759,60.007062222205427],[30.376515367711903,60.006957251495649],[30.37653262648573,60.006982814426166],[30.376720116990548,60.006951179538049],[30.376702858152516,60.006925616607525],[30.377324984407235,60.006820645897747],[30.377138012003119,60.006543713967481],[30.377402200936828,60.006499137609076],[30.377710095960492,60.00696922936789],[30.377948719567254,60.006928966558462],[30.377393551259832,60.006106692201932],[30.377163452640758,60.006145517161706]],[[30.375947772510383,60.00674928804564],[30.376271618916988,60.006694645916262],[30.376329147947065,60.006779855867627],[30.3763064573519,60.006788429996504],[30.376280997578665,60.006806963409311],[30.376264059982898,60.006824058697994],[30.376267043549031,60.006842538592821],[30.376315943154768,60.006914966804473],[30.376085841022839,60.006953791489792],[30.375947772510383,60.00674928804564]],[[30.3765784203979,60.0066428794862],[30.376902265831195,60.006588237356816],[30.377040336958498,60.006792740800975],[30.376801713427483,60.006833003335956],[30.376752813350432,60.0067605751243],[30.376732785173424,60.006744971203247],[30.376698589060503,60.00673650356142],[30.376664392819091,60.006728035919586],[30.376635949640931,60.006728089437566],[30.3765784203979,60.0066428794862]]]},"properties":{"name":null,"alt_name":null,"category":"unspecified","restriction":null,"rotation":0.0,"display_point":{"type":"Point","coordinates":[30.376440893740583,60.006699305273706]},"address_id":"c4784091-ab99-4438-b68d-28ab3e062847"}},{"id":"4c0a569f-4d99-4080-bd8f-4cdda3bdaa23","type":"Feature","feature_type":"building","geometry":{"type":"Polygon","coordinates":[[[30.377710095960492,60.00696922936789],[30.377776256379246,60.007067220784521],[30.377384231129291,60.007133366534525],[30.377315194640413,60.007031114812449],[30.376164682123289,60.0072252385135],[30.376233717036232,60.007327490235582],[30.375850210837857,60.007392198135932],[30.375786929170463,60.007298467299208],[30.375616481913852,60.007327226488009],[30.375745814420018,60.007504729151982],[30.376299768697265,60.007411262062831],[30.376308398031458,60.0074240435281],[30.377433346517737,60.007234233650472],[30.37742471699093,60.007221452185213],[30.3780042332393,60.00712367127263],[30.377880541384322,60.006940470179089],[30.377710095960492,60.00696922936789]]]},"properties":{"name":null,"alt_name":null,"category":"unspecified","restriction":null,"rotation":0.0,"display_point":{"type":"Point","coordinates":[30.3767516591438,60.007173657337979]},"address_id":"c4784091-ab99-4438-b68d-28ab3e062847"}},{"id":"64978331-3cdb-4126-a59d-5bfc314df882","type":"Feature","feature_type":"building","geometry":{"type":"Polygon","coordinates":[[[30.375594656280654,60.007829219901481],[30.375680949504421,60.007957035102976],[30.375740606633045,60.007946969332011],[30.37590168893108,60.008185556866493],[30.375884644043378,60.008188432565809],[30.375991073907677,60.008346070179925],[30.376008118831379,60.008343195029511],[30.376183585405794,60.008603084914611],[30.376123927752815,60.008613150685576],[30.376213099610002,60.008745225369175],[30.37674149609164,60.008656072103456],[30.376652323299531,60.008523996870956],[30.376439260796943,60.008559945582505],[30.376263793332377,60.008300055697404],[30.377081949329796,60.008162012249848],[30.377153863266258,60.008268524551831],[30.377264654991119,60.008249831134],[30.377448648912505,60.008508282894987],[30.378727016163975,60.008292590076785],[30.378502637539658,60.007960271980032],[30.378195831591405,60.008012038410094],[30.378336786254941,60.008220802434153],[30.37756124422922,60.008351656358961],[30.377434674388567,60.00816419468552],[30.377997154254064,60.008069289746707],[30.37760593940126,60.007489862955666],[30.375594656280654,60.007829219901481]],[[30.375999156314677,60.007908090854258],[30.376791740698437,60.007774361230126],[30.376901048655363,60.00793625997305],[30.377020362485624,60.007916128431113],[30.377066387099795,60.007984296337312],[30.376154486334045,60.008138157503389],[30.375999156314677,60.007908090854258]],[[30.377146804454409,60.007709706847756],[30.377470654641353,60.007655064718378],[30.377591470334451,60.007834005232013],[30.3772676193712,60.007888647361391],[30.377146804454409,60.007709706847756]]]},"properties":{"name":null,"alt_name":null,"category":"unspecified","restriction":null,"rotation":0.0,"display_point":{"type":"Point","coordinates":[30.3770353346994,60.008015638111587]},"address_id":"c4784091-ab99-4438-b68d-28ab3e062847"}},{"id":"2d6ee8df-3cd4-448d-a732-dc5ddaf52193","type":"Feature","feature_type":"building","geometry":{"type":"Polygon","coordinates":[[[30.378063913225667,60.00749326971799],[30.378176100224529,60.007659428766367],[30.378431770805843,60.007616290257616],[30.378319583237889,60.007450131209239],[30.378063913225667,60.00749326971799]]]},"properties":{"name":null,"alt_name":null,"category":"unspecified","restriction":"employeesonly","rotation":0.0,"display_point":{"type":"Point","coordinates":[30.378145036493933,60.007500938158024]},"address_id":"c4784091-ab99-4438-b68d-28ab3e062847"}},{"id":"697e5782-be29-4e87-9b93-abe277ffc6e3","type":"Feature","feature_type":"building","geometry":{"type":"Polygon","coordinates":[[[30.379096757132142,60.007912232871256],[30.379116894030059,60.007942056107233],[30.378784521235573,60.007998135811818],[30.378983011217237,60.008292109787241],[30.379693247381102,60.008177020337421],[30.379471741053177,60.00784896254612],[30.379096757132142,60.007912232871256]]]},"properties":{"name":null,"alt_name":null,"category":"unspecified","restriction":null,"rotation":0.0,"display_point":{"type":"Point","coordinates":[30.379220077652224,60.008045665813682]},"address_id":"c4784091-ab99-4438-b68d-28ab3e062847"}},{"id":"bc52c6ca-fcd3-4d62-8ae0-9e80dc58d9fe","type":"Feature","feature_type":"building","geometry":{"type":"Polygon","coordinates":[[[30.378404806318187,60.007435751614842],[30.378445078669106,60.007495398361236],[30.378615525129224,60.007466639172435],[30.378575252642118,60.007406992426041],[30.378404806318187,60.007435751614842]]]},"properties":{"name":null,"alt_name":null,"category":"unspecified","restriction":null,"rotation":0.0,"display_point":{"type":"Point","coordinates":[30.378495889980279,60.007444112220718]},"address_id":"c4784091-ab99-4438-b68d-28ab3e062847"}},{"id":"6cb0d648-c5e9-42ae-92fd-cab2f3884c31","type":"Feature","feature_type":"building","geometry":{"type":"Polygon","coordinates":[[[30.379560530428005,60.007179051675649],[30.379641077523257,60.007298345442891],[30.379669628322805,60.007312511514286],[30.379641508660438,60.007355223251466],[30.379581852521884,60.007365288747991],[30.37961924941574,60.007420675188932],[30.379678905598553,60.007410609692414],[30.3797302543563,60.007430420675391],[30.37973323891817,60.007448900295763],[30.3801071037064,60.007988544841368],[30.380396864108732,60.007939654659531],[30.380342205919519,60.007858705013611],[30.380333683408622,60.007860142863272],[30.380014474225106,60.007401447963581],[30.379985922764341,60.00738728216664],[30.379998598863768,60.007370905665553],[30.380005574658203,60.007353117936574],[30.380005466521091,60.007338898621654],[30.37999678269048,60.007319007224481],[30.379979576418641,60.007300554225878],[30.379962423945756,60.007289210610274],[30.379936749583081,60.007279305118786],[30.379908251975223,60.007272248979305],[30.37991378981447,60.00725233096037],[30.379833242283414,60.007133037193128],[30.379560530428005,60.007179051675649]]]},"properties":{"name":null,"alt_name":null,"category":"unspecified","restriction":null,"rotation":0.0,"display_point":{"type":"Point","coordinates":[30.37983843661538,60.0074430152394]},"address_id":"c4784091-ab99-4438-b68d-28ab3e062847"}},{"id":"29902a1f-8ef6-492e-a69f-a26e36cccd69","type":"Feature","feature_type":"building","geometry":{"type":"Polygon","coordinates":[[[30.381036192903029,60.007290750830222],[30.380895575627338,60.007314477133534],[30.380871123567825,60.007278263027708],[30.380645284131582,60.007316368650969],[30.380812135975976,60.007563477070811],[30.3810379761598,60.007525371447549],[30.380966057051271,60.007418859145567],[30.381106673974596,60.007395132842248],[30.381119619367283,60.007414305177363],[30.382423520371784,60.007194298261282],[30.382410574644219,60.007175125926167],[30.382551190531245,60.007151399622849],[30.382623112450457,60.007257911924832],[30.3828489505477,60.00721980630157],[30.382682091961051,60.006972697881729],[30.38245625461137,60.007010803505],[30.382480707988844,60.007047017610823],[30.382340091749445,60.007070743914134],[30.382325707478937,60.007049441563524],[30.381021809004604,60.007269448479605],[30.381036192903029,60.007290750830222]]]},"properties":{"name":{"ru":"Учебный корпус №3","en":"Academic building №3"},"alt_name":{"ru":"Учебный корпус №3","en":"Academic building №3"},"category":"unspecified","restriction":null,"rotation":18.65,"display_point":{"type":"Point","coordinates":[30.381732733746922,60.007246784851205]},"address_id":"b7022a1d-0f94-4720-9ea8-2ddc48146ddf"}},{"id":"9926e6a1-34dd-4e58-9086-336f624370e9","type":"Feature","feature_type":"building","geometry":{"type":"Polygon","coordinates":[[[30.379704097908377,60.004354764813179],[30.379942710870093,60.004314502140979],[30.380008872215406,60.004412493420375],[30.380204875426344,60.004379420476759],[30.380138713823762,60.004281429197356],[30.380385848300079,60.004239728538266],[30.380443379945881,60.004324938352411],[30.380588251503241,60.004300493192879],[30.3804846941303,60.004147115541144],[30.37952736821569,60.004303905787289],[30.379582022744771,60.004384855090137],[30.379496803576536,60.004399234615924],[30.379528445492159,60.004446100034286],[30.37961366471389,60.0044317205085],[30.37977762851262,60.004674568417045],[30.379692409562651,60.004688948011449],[30.379732681402263,60.004748594895069],[30.380161654708964,60.0046809576402],[30.380118505588932,60.0046170503139],[30.380092939842495,60.004621364137328],[30.380069927134031,60.004587280184225],[30.379967664161629,60.004604535615172],[30.379861123288457,60.004432678137228],[30.379767382035638,60.004448495581293],[30.379704097908377,60.004354764813179]]]},"properties":{"name":null,"alt_name":null,"category":"unspecified","restriction":null,"rotation":0.0,"display_point":{"type":"Point","coordinates":[30.379675241005309,60.004487772424909]},"address_id":"c4784091-ab99-4438-b68d-28ab3e062847"}},{"id":"71036c82-9a01-43a7-b782-17f2f622176a","type":"Feature","feature_type":"building","geometry":{"type":"Polygon","coordinates":[[[30.368862734980439,60.00256779433311],[30.368590033765624,60.002613808815632],[30.3686216671002,60.002660674233994],[30.36851088201945,60.002679367651822],[30.368700683099821,60.002960559956151],[30.368811468597858,60.002941866538322],[30.368845978383952,60.002992992433668],[30.369118680983895,60.002946977916842],[30.369193451768314,60.0030577506615],[30.370241649003777,60.002880882391395],[30.370233021434444,60.002868100926136],[30.370369372041996,60.002845093684876],[30.369983794759012,60.002245749286573],[30.369830401763629,60.002271632364376],[30.369844780971381,60.002292934852221],[30.368793716428254,60.002465542611034],[30.368862734980439,60.00256779433311]],[[30.369280412877821,60.002511554005977],[30.369842856103006,60.002416649135782],[30.369934882980896,60.002552984742351],[30.369866708188944,60.002564488362978],[30.369932852858092,60.002662479642382],[30.37000102773953,60.002650976021748],[30.370093055269379,60.002787311696927],[30.369522087146837,60.002883654622622],[30.369280412877821,60.002511554005977]]]},"properties":{"name":null,"alt_name":null,"category":"unspecified","restriction":null,"rotation":0.0,"display_point":{"type":"Point","coordinates":[30.368907678684039,60.002683599894645]},"address_id":"c4784091-ab99-4438-b68d-28ab3e062847"}},{"id":"b90772e7-7575-4f6c-bf4d-a9c0e7eb20ac","type":"Feature","feature_type":"building","geometry":{"type":"Polygon","coordinates":[[[30.379831546166816,60.004845813731663],[30.3799853897869,60.005066640158923],[30.38013026368689,60.005042195068008],[30.380058348190953,60.004935682766025],[30.380194699643003,60.004912675524764],[30.380117031396605,60.004797642337422],[30.379831546166816,60.004845813731663]]]},"properties":{"name":null,"alt_name":null,"category":"unspecified","restriction":null,"rotation":0.0,"display_point":{"type":"Point","coordinates":[30.379897060866618,60.004858488572644]},"address_id":"c4784091-ab99-4438-b68d-28ab3e062847"}},{"id":"1b68e15b-7502-4358-9d31-583b6bc797fd","type":"Feature","feature_type":"building","geometry":{"type":"Polygon","coordinates":[[[30.380256870008562,60.004484548103996],[30.38032015504325,60.0045782788721],[30.380601377724485,60.0045308264027],[30.38053809233671,60.004437095634586],[30.380256870008562,60.004484548103996]]]},"properties":{"name":null,"alt_name":null,"category":"unspecified","restriction":null,"rotation":0.0,"display_point":{"type":"Point","coordinates":[30.38031812284401,60.004497941801191]},"address_id":"c4784091-ab99-4438-b68d-28ab3e062847"}},{"id":"2439d4db-34b4-4d53-b02b-99092c9ae21f","type":"Feature","feature_type":"building","geometry":{"type":"Polygon","coordinates":[[[30.376969169335084,60.009167355963356],[30.37747735559206,60.009878792667521],[30.377816201464235,60.009818308570615],[30.377804101585433,60.009801369993546],[30.377865093708088,60.009790483064684],[30.37779854441041,60.00969731842072],[30.377737552362735,60.009708205898477],[30.377380609456829,60.009208506073406],[30.377465320009367,60.009193384911953],[30.37739272205452,60.009091750705],[30.376969169335084,60.009167355963356]]]},"properties":{"name":null,"alt_name":null,"category":"unspecified","restriction":null,"rotation":0.0,"display_point":{"type":"Point","coordinates":[30.378342663448368,60.009218217253469]},"address_id":"c4784091-ab99-4438-b68d-28ab3e062847"}},{"id":"28dc814f-ad27-41ff-960b-8615bd66485a","type":"Feature","feature_type":"building","geometry":{"type":"Polygon","coordinates":[[[30.374979785561152,60.002840708161074],[30.375081406498879,60.0027381362231],[30.37500162070279,60.002718378415032],[30.375058076721686,60.00266139398218],[30.374978290990814,60.002641636242728],[30.374958478019519,60.002654471020122],[30.374853020325975,60.002624807789182],[30.374648497605126,60.002659318651069],[30.374343629758595,60.002587370660343],[30.374275455492025,60.002598874280977],[30.374036738055736,60.00224525362777],[30.37398134670477,60.002254600199457],[30.374220063878685,60.002608220989892],[30.374147628652558,60.002620443603966],[30.3740037170662,60.002772863558349],[30.373765106187797,60.002813126230556],[30.373636852891448,60.00277781788219],[30.373566228099754,60.002841938731493],[30.372924319979035,60.002959744150061],[30.3728225889416,60.003048096704504],[30.372925170372508,60.003073499527076],[30.372888525683877,60.00311764914823],[30.373043836130009,60.003157883586269],[30.372875740025762,60.003309638013732],[30.372750362368652,60.003278590108039],[30.372656621325483,60.003294407586409],[30.372560641655159,60.003391281146278],[30.372811397336157,60.003453376923346],[30.372934167991868,60.003325880925708],[30.372915632991248,60.003319516883458],[30.372983435955344,60.003258245300394],[30.373285429456125,60.003325932796983],[30.3734322199302,60.003177773268121],[30.3737229219167,60.0032568576753],[30.373858313369723,60.003105875604874],[30.3741575373868,60.003183522059473],[30.374445467634445,60.002892901431316],[30.375012491214452,60.003029767757823],[30.375165029660117,60.0028901292687],[30.374979785561152,60.002840708161074]]]},"properties":{"name":null,"alt_name":null,"category":"unspecified","restriction":null,"rotation":0.0,"display_point":{"type":"Point","coordinates":[30.37430059550292,60.002727514688516]},"address_id":"c4784091-ab99-4438-b68d-28ab3e062847"}},{"id":"b93e75cf-6179-4f55-9ae5-fca8049d3602","type":"Feature","feature_type":"building","geometry":{"type":"Polygon","coordinates":[[[30.373914024865726,60.002000195358143],[30.373870299573589,60.002007573566068],[30.37376361685061,60.001854726497051],[30.373739489821986,60.001861170747659],[30.37371248666069,60.001863354281141],[30.373811764218292,60.002017450789083],[30.373773416487484,60.002023921661454],[30.373582530181423,60.0019801989834],[30.373479523282708,60.0020877503575],[30.373713178207382,60.00214561248518],[30.373744815084819,60.002192477903542],[30.37362476451273,60.002302905114185],[30.373831363836665,60.00235584111789],[30.373925955338155,60.002263946908371],[30.374083607605947,60.00223734476851],[30.374271672182772,60.002283916798575],[30.374357794516378,60.002200570370633],[30.374520187346857,60.002237236634755],[30.374557097029196,60.002228635609654],[30.374770244396839,60.002017074242083],[30.374734292785305,60.001963818091092],[30.374299791416846,60.00186154111951],[30.374262881837257,60.001870142144604],[30.374188050982468,60.001942091713431],[30.374022783013935,60.0019011648694],[30.373914024865726,60.002000195358143]],[[30.374222404280307,60.001971888464865],[30.374481731224556,60.002039656084037],[30.374349006283008,60.00216645965854],[30.374136761534118,60.002119222221623],[30.374109438657708,60.002078747673117],[30.374222404280307,60.001971888464865]]]},"properties":{"name":null,"alt_name":null,"category":"unspecified","restriction":null,"rotation":0.0,"display_point":{"type":"Point","coordinates":[30.373847608654557,60.002056487487934]},"address_id":"c4784091-ab99-4438-b68d-28ab3e062847"}},{"id":"40b4d632-037b-44a9-b11d-3a4bb70f20d5","type":"Feature","feature_type":"building","geometry":{"type":"Polygon","coordinates":[[[30.373875251187037,60.001759956450989],[30.373836797015553,60.00175220787122],[30.373775600674367,60.001745923900089],[30.373715895725493,60.001748879876374],[30.373667588348649,60.001754658445677],[30.373609374547424,60.001766854369379],[30.373565434417092,60.001786133191544],[30.37353145419684,60.001806104454005],[30.373520216031256,60.001824611107814],[30.373523145375277,60.001835981207954],[30.373536034250645,60.001848043748382],[30.37357166562817,60.001858641680165],[30.373604420896026,60.001864979032042],[30.373664179199956,60.001869132713217],[30.373739489821986,60.001861170747659],[30.373800526417892,60.001846125471957],[30.373841643649374,60.001829695727345],[30.373878446793206,60.001806875387331],[30.373895383583633,60.001789779961413],[30.373893839044282,60.001773430356543],[30.373875251187037,60.001759956450989]]]},"properties":{"name":null,"alt_name":null,"category":"unspecified","restriction":null,"rotation":0.0,"display_point":{"type":"Point","coordinates":[30.373634673403281,60.0017269919842]},"address_id":"c4784091-ab99-4438-b68d-28ab3e062847"}},{"id":"4cd45a11-bf36-43ca-bac8-138e3e5a6f30","type":"Feature","feature_type":"building","geometry":{"type":"Polygon","coordinates":[[[30.3734031597265,60.000434862720212],[30.373641760827791,60.000774263852662],[30.374076360077673,60.000700928305449],[30.373846278560002,60.00036008904889],[30.3734031597265,60.000434862720212]]]},"properties":{"name":null,"alt_name":null,"category":"unspecified","restriction":null,"rotation":0.0,"display_point":{"type":"Point","coordinates":[30.373665515604934,60.000528219754443]},"address_id":"c4784091-ab99-4438-b68d-28ab3e062847"}},{"id":"719d1ecb-e286-4de6-9eb9-45dd554aa71a","type":"Feature","feature_type":"building","geometry":{"type":"Polygon","coordinates":[[[30.371940646297858,60.000729109500092],[30.372047054762874,60.000886747663117],[30.373188947382584,60.000694061537274],[30.373079660614366,60.0005321630688],[30.371940646297858,60.000729109500092]]]},"properties":{"name":null,"alt_name":null,"category":"unspecified","restriction":null,"rotation":0.0,"display_point":{"type":"Point","coordinates":[30.372449118398723,60.0006456812857]},"address_id":"c4784091-ab99-4438-b68d-28ab3e062847"}},{"id":"28bfc329-8fc9-476b-8a0d-7ef9a34a788e","type":"Feature","feature_type":"building","geometry":{"type":"Polygon","coordinates":[[[30.366804408564221,60.00152935860163],[30.366853293607598,60.001601786950516],[30.367219730936984,60.001539955023937],[30.367170844989154,60.00146752667505],[30.366804408564221,60.00152935860163]]]},"properties":{"name":null,"alt_name":null,"category":"unspecified","restriction":null,"rotation":0.0,"display_point":{"type":"Point","coordinates":[30.367011363705835,60.00153536908217]},"address_id":"c4784091-ab99-4438-b68d-28ab3e062847"}},{"id":"ea6d2c3c-baf0-4658-a537-c72e0d66e797","type":"Feature","feature_type":"building","geometry":{"type":"Polygon","coordinates":[[[30.373231657893239,60.001080755271325],[30.373294929717712,60.001174486108042],[30.373644316045588,60.001115530155232],[30.373698960604258,60.0011964795267],[30.373893519592485,60.001161276224515],[30.373778478207775,60.000990856596232],[30.373231657893239,60.001080755271325]]]},"properties":{"name":null,"alt_name":null,"category":"unspecified","restriction":null,"rotation":0.0,"display_point":{"type":"Point","coordinates":[30.373673556048207,60.00103229021434]},"address_id":"c4784091-ab99-4438-b68d-28ab3e062847"}},{"id":"362f7f64-6e5b-443d-9c5f-b7d06756cd51","type":"Feature","feature_type":"building","geometry":{"type":"Polygon","coordinates":[[[30.379646452580559,60.000501354553137],[30.379597877360425,60.000471584560692],[30.37947282541219,60.000483194942831],[30.379378874504059,60.000470573757049],[30.379281939510555,60.000439472402],[30.379233149403834,60.000381263505261],[30.379150704063889,60.0003856840902],[30.379185220507047,60.000436809951232],[30.377853001221307,60.000656870385292],[30.377867382661471,60.00067817273591],[30.377748082143416,60.0006983040034],[30.378139258075926,60.001277730519988],[30.378267080950771,60.001256161128389],[30.37824982313802,60.001230598197871],[30.378846328489484,60.001129941585972],[30.378857833924158,60.001146983631131],[30.379815116015145,60.000990193247766],[30.37949306741055,60.000527237768168],[30.379646452580559,60.000501354553137]]]},"properties":{"name":null,"alt_name":null,"category":"unspecified","restriction":null,"rotation":0.0,"display_point":{"type":"Point","coordinates":[30.378468103868229,60.000759518963754]},"address_id":"c4784091-ab99-4438-b68d-28ab3e062847"}},{"id":"38ec7606-9489-47ff-af6c-4d2db6d4603e","type":"Feature","feature_type":"building","geometry":{"type":"Polygon","coordinates":[[[30.376240700116778,59.999941804887804],[30.3762954536617,60.00003697357419],[30.376210239654455,60.000051353168587],[30.37599336551872,59.999955066642606],[30.375860326709034,60.0000392119979],[30.375977285206268,60.000085917274006],[30.375991665918313,60.000107219624624],[30.375744544384538,60.000148920283713],[30.375730163743004,60.000127617933096],[30.375760945575848,60.000060727871521],[30.375558773156598,60.00002840218982],[30.375508606294709,60.000165004768753],[30.375546102737491,60.000234610524615],[30.375765853194853,60.000335157356055],[30.375830934833065,60.000290954525681],[30.375802387611493,60.000276788454286],[30.375864699933313,60.000242544358933],[30.375781933986087,60.000204306724655],[30.375770429507746,60.000187264679489],[30.376017551168442,60.0001455640204],[30.376029055703189,60.000162606065565],[30.376006795167175,60.000228058277479],[30.376086471319969,60.00023359670201],[30.376080932915873,60.000253514172044],[30.376200447342597,60.000261821808841],[30.376250612849322,60.0001252192299],[30.37632730561759,60.000112277759612],[30.376356067150589,60.000154882735295],[30.376366079990039,60.000162684558596],[30.37639025981748,60.000163350377129],[30.376405864501862,60.0001583441134],[30.376407195675267,60.000146254813984],[30.376424238330891,60.000143379114668],[30.376622694255328,60.000437352815638],[30.376614172894147,60.0004387906653],[30.376592815656227,60.000435276043667],[30.376567251295967,60.0004395898671],[30.376547439292459,60.000452424575883],[30.376548984525414,60.000468774455207],[30.376571833316987,60.000481529024249],[30.376605972894449,60.000482887008623],[30.376628661013513,60.000474312605284],[30.376634252697297,60.000461504243809],[30.37670668496283,60.000449281835579],[30.376627589897581,60.000332118358287],[30.377126093709109,60.00024799797805],[30.377209450088909,60.000364442667738],[30.377269100275157,60.000354376896766],[30.377291895532103,60.0003600220828],[30.3773245966396,60.000359249502772],[30.377342970591066,60.000344284504031],[30.377342863586687,60.000330065189111],[30.377325713098827,60.000318721573514],[30.377294396522849,60.000314514511587],[30.377270270262663,60.000320958624968],[30.377261802424009,60.00032950613209],[30.377244759482387,60.00033238210586],[30.37704630110856,60.000038408404883],[30.377063343983078,60.000035532431113],[30.377074795294952,60.000045464818818],[30.377108934520475,60.000046822803192],[30.377127361638252,60.000038967187457],[30.377131515191866,60.000024028810486],[30.377102753216352,59.999981423834804],[30.377168155197968,59.999979879223638],[30.377376402541216,60.00006338428436],[30.377452880687979,60.00002200363533],[30.377420072179287,60.000008556625993],[30.377482383685553,59.999974312530632],[30.377383958801389,59.999933971502621],[30.3773724536829,59.999916929457456],[30.377619573598388,59.999875228798366],[30.377631078224354,59.999892270843532],[30.377617341053593,59.999956284931336],[30.37769701701389,59.999961823081414],[30.377691479117459,59.999981741100349],[30.377802471840486,59.999991486586808],[30.377858278785855,59.999849185578306],[30.377809382988929,59.999776757366654],[30.377603904951581,59.999683293570918],[30.377521782046859,59.999730372375062],[30.377547453392626,59.99974027786655],[30.377485142140479,59.9997745219619],[30.377579306081881,59.999815582051973],[30.377593687251018,59.99983688440259],[30.377355089558936,59.999877146937571],[30.377343584457776,59.99986010516686],[30.377354445875458,59.999791830499149],[30.377274770148578,59.999786292349071],[30.377280308154109,59.999766374330136],[30.377160794486851,59.999758066967786],[30.377113507399198,59.999898930126626],[30.377019772462717,59.999914747570685],[30.376956496428338,59.999821016733968],[30.376240700116778,59.999941804887804]]]},"properties":{"name":null,"alt_name":null,"category":"unspecified","restriction":null,"rotation":0.0,"display_point":{"type":"Point","coordinates":[30.376633647749554,60.000003633795423]},"address_id":"c4784091-ab99-4438-b68d-28ab3e062847"}},{"id":"d41fff25-158e-4896-bab5-5757bb7a9442","type":"Feature","feature_type":"building","geometry":{"type":"Polygon","coordinates":[[[30.374246682401573,60.000278285859849],[30.374574445073691,60.0007497622248],[30.374787483434808,60.0007138132388],[30.374459719422489,60.0002423371483],[30.374246682401573,60.000278285859849]]]},"properties":{"name":null,"alt_name":null,"category":"unspecified","restriction":null,"rotation":0.0,"display_point":{"type":"Point","coordinates":[30.374434103166394,60.000429373147981]},"address_id":"c4784091-ab99-4438-b68d-28ab3e062847"}},{"id":"4744e178-d4d6-47fc-8a68-f831a45705ff","type":"Feature","feature_type":"building","geometry":{"type":"Polygon","coordinates":[[[30.368444670205303,60.000499135066562],[30.36857133928811,60.000738199048264],[30.36755823645986,60.000863100401737],[30.367627326806932,60.000993499012061],[30.368870561869933,60.000828809649683],[30.368679405795497,60.000468039749435],[30.368444670205303,60.000499135066562]]]},"properties":{"name":null,"alt_name":null,"category":"unspecified","restriction":null,"rotation":0.0,"display_point":{"type":"Point","coordinates":[30.368623587796471,60.000617311268655]},"address_id":"c4784091-ab99-4438-b68d-28ab3e062847"}},{"id":"c209ae62-df43-453e-8ddb-10328c1e4e5e","type":"Feature","feature_type":"building","geometry":{"type":"Polygon","coordinates":[[[30.370130042961954,60.000493617500318],[30.370146980522033,60.000476522211628],[30.370118223259706,60.000433917235945],[30.370041528354971,60.000446858706233],[30.37000701952201,60.000395732845192],[30.369075287681277,60.000548209405132],[30.369115547427281,60.000607856151525],[30.36904737449742,60.000619359772159],[30.369081882705384,60.000670485633194],[30.369150056230868,60.000658982012567],[30.369219073449123,60.000761233734643],[30.370147931840592,60.000604496869251],[30.370078913350152,60.000502245147175],[30.370130042961954,60.000493617500318]]]},"properties":{"name":null,"alt_name":null,"category":"unspecified","restriction":null,"rotation":0.0,"display_point":{"type":"Point","coordinates":[30.369426270587006,60.000512712714652]},"address_id":"c4784091-ab99-4438-b68d-28ab3e062847"}},{"id":"76b56438-8169-495f-9462-f2f3f46d4416","type":"Feature","feature_type":"building","geometry":{"type":"Polygon","coordinates":[[[30.370428298582027,60.000443289194365],[30.370505945417431,60.0005583223817],[30.372096602833093,60.000285164703875],[30.372021829772137,60.000174391821993],[30.370428298582027,60.000443289194365]]]},"properties":{"name":null,"alt_name":null,"category":"unspecified","restriction":null,"rotation":0.0,"display_point":{"type":"Point","coordinates":[30.371171484382526,60.00037008510926]},"address_id":"c4784091-ab99-4438-b68d-28ab3e062847"}},{"id":"7d8eabfa-cfe1-47dc-8bbc-d5004ef6004e","type":"Feature","feature_type":"building","geometry":{"type":"Polygon","coordinates":[[[30.372257450186773,60.000115649117738],[30.37233509954379,60.000230682579527],[30.373900177042,59.99996183845068],[30.373825401326492,59.9998510655688],[30.372257450186773,60.000115649117738]]]},"properties":{"name":null,"alt_name":null,"category":"unspecified","restriction":null,"rotation":0.0,"display_point":{"type":"Point","coordinates":[30.372987794890388,60.000037492561347]},"address_id":"c4784091-ab99-4438-b68d-28ab3e062847"}},{"id":"4d86f1df-5155-4f42-ae04-e36f063d89ff","type":"Feature","feature_type":"building","geometry":{"type":"Polygon","coordinates":[[[30.372585660715536,59.99874568385632],[30.373218463718217,59.999697210715105],[30.373448542361157,59.999658386029779],[30.372807215062362,59.998708297020656],[30.372585660715536,59.99874568385632]]]},"properties":{"name":null,"alt_name":null,"category":"unspecified","restriction":null,"rotation":0.0,"display_point":{"type":"Point","coordinates":[30.372912712982831,59.999124733576487]},"address_id":"c4784091-ab99-4438-b68d-28ab3e062847"}},{"id":"931385c7-eb99-493b-8262-5ee742544be3","type":"Feature","feature_type":"building","geometry":{"type":"Polygon","coordinates":[[[30.37437299858567,59.998159325526622],[30.374772651401546,59.998737313644654],[30.373730176884987,59.998908483347968],[30.373333408092584,59.998334755809843],[30.373086291504087,59.998376456468932],[30.373471767487263,59.998961580866187],[30.373684800689176,59.998925632154638],[30.373765326865385,59.999044925921879],[30.374904307027474,59.998847980039486],[30.374823779037168,59.99872868599779],[30.3750282894463,59.998694174861448],[30.374628634657615,59.998116186743424],[30.37437299858567,59.998159325526622]]]},"properties":{"name":null,"alt_name":null,"category":"unspecified","restriction":null,"rotation":0.0,"display_point":{"type":"Point","coordinates":[30.3739972662971,59.998495613285044]},"address_id":"c4784091-ab99-4438-b68d-28ab3e062847"}},{"id":"3aa32e77-3dec-4839-a07c-08d3c89f7ebf","type":"Feature","feature_type":"building","geometry":{"type":"Polygon","coordinates":[[[30.374958530061868,59.9992517152698],[30.375001136828388,59.9992445254726],[30.375182327553205,59.99951293624305],[30.374406881647307,59.999643790167866],[30.374225693710294,59.999375379397407],[30.374268300498869,59.999368189600212],[30.374196401158091,59.999261677298229],[30.373906674869666,59.99931056775452],[30.374263190228447,59.9998246488207],[30.375524357505888,59.99961183170182],[30.375176354713634,59.999096312511526],[30.374886629736388,59.999145203242264],[30.374958530061868,59.9992517152698]]]},"properties":{"name":null,"alt_name":null,"category":"unspecified","restriction":null,"rotation":0.0,"display_point":{"type":"Point","coordinates":[30.374650750483863,59.999358228944033]},"address_id":"c4784091-ab99-4438-b68d-28ab3e062847"}},{"id":"f7c98801-7500-4e5d-b5b4-3f7d89221689","type":"Feature","feature_type":"building","geometry":{"type":"Polygon","coordinates":[[[30.373458132446835,59.997880087932117],[30.373545094142827,59.998040680287488],[30.374854024397528,59.997862855143389],[30.37501808183783,59.998162711705113],[30.375278508204495,59.998127456257208],[30.375116329701314,59.997827974046878],[30.375888922545112,59.997723383451962],[30.375801955713989,59.997562791096591],[30.373458132446835,59.997880087932117]]]},"properties":{"name":null,"alt_name":null,"category":"unspecified","restriction":null,"rotation":0.0,"display_point":{"type":"Point","coordinates":[30.374890283323531,59.997737453465447]},"address_id":"c4784091-ab99-4438-b68d-28ab3e062847"}},{"id":"4316c2b1-cc9e-4f24-83ba-cee81e143b23","type":"Feature","feature_type":"building","geometry":{"type":"Polygon","coordinates":[[[30.366008002743182,59.998436663919058],[30.366144090816007,59.998764881715395],[30.366047479088994,59.998776438854],[30.36607921391743,59.998837523998958],[30.365999645396595,59.99884620488934],[30.366025628656946,59.99889876887449],[30.365954581725706,59.99890601164077],[30.366079063829705,59.999202968351469],[30.366070752381194,59.999232845105418],[30.366039647004598,59.999257076398877],[30.365971578941419,59.999282799608878],[30.365906282618162,59.999298563809411],[30.366357058693826,60.000261808086286],[30.366570205872748,60.00024007868965],[30.366557160865803,60.000206687039615],[30.366672255073894,60.000194384217195],[30.366649040860025,60.000131861771479],[30.366586514487931,60.0001376666881],[30.366499724022312,59.999938754911994],[30.366437196721737,59.999944560103067],[30.366415421289723,59.999884167672853],[30.366388418556394,59.999886351480782],[30.36634363812195,59.999791874960238],[30.366299592967852,59.99979693446749],[30.366270628133755,59.999725890587513],[30.366438288962538,59.99970709040818],[30.366449895889861,59.999738351768265],[30.366842098566103,59.999700644648094],[30.366711860411669,59.99939516732649],[30.366456109023332,59.999424086520321],[30.366467610695068,59.999441128565486],[30.366334036932511,59.999454176797279],[30.366342768490885,59.999481177577458],[30.366166586465493,59.9995014158809],[30.366137622452527,59.99943037200093],[30.366191627012721,59.999426004933973],[30.366145409817396,59.999329398123479],[30.36619920453068,59.999296592152234],[30.366238726962621,59.999256703145292],[30.366255455423723,59.99921116867786],[30.366246514152756,59.999155728993394],[30.3663715667363,59.99914411888571],[30.366220889144529,59.99876615956002],[30.366431154653785,59.998740169583485],[30.366341491803194,59.99853699722749],[30.367756359827041,59.998340955661689],[30.367851463084936,59.998509990683836],[30.369675350444542,59.998244926845352],[30.369571721971951,59.998077329398413],[30.372495038576325,59.997655208684478],[30.372477783658763,59.99762964575396],[30.372599956118083,59.997613775340824],[30.372738420356313,59.997875156044657],[30.373028247569327,59.997840484628838],[30.372820762686548,59.997476852202922],[30.372655985056163,59.997499912687708],[30.372676221740786,59.997543956061953],[30.372448919635897,59.9975728211889],[30.372414410441632,59.997521695327869],[30.369367487156911,59.997957557262787],[30.369417916192923,59.998046335079316],[30.369452001577347,59.998040583131775],[30.369498116837246,59.99812297062735],[30.367898558134964,59.998340688346254],[30.36781208203648,59.998184435063813],[30.366008002743182,59.998436663919058]]]},"properties":{"name":null,"alt_name":null,"category":"unspecified","restriction":null,"rotation":0.0,"display_point":{"type":"Point","coordinates":[30.366106575891212,59.998498334193904]},"address_id":"c4784091-ab99-4438-b68d-28ab3e062847"}},{"id":"f1bcf815-a63f-4a25-9330-49ff347df9a5","type":"Feature","feature_type":"building","geometry":{"type":"Polygon","coordinates":[[[30.369287906679407,59.998922507802561],[30.369489203245195,59.999220742083438],[30.369412509623864,59.999233683553726],[30.369501655713538,59.999365758786226],[30.36966356374506,59.999338437721541],[30.369715326338042,59.9994151265131],[30.369681240268303,59.99942087846064],[30.369669948479551,59.999432275045315],[30.36967292987028,59.999450755214589],[30.369690078546466,59.999462098555739],[30.36971287284922,59.999467743741775],[30.369746958940357,59.999461991794234],[30.369847608577373,59.9996111090719],[30.369807876793409,59.999622559174547],[30.369805212604181,59.999646737773389],[30.369836634052117,59.99966516415023],[30.369882117426794,59.999662234932934],[30.369910874750584,59.99970483963417],[30.37001313277208,59.99968758434045],[30.370085025840513,59.999794096642432],[30.370042418460223,59.999801286439627],[30.370034002196029,59.999816943604209],[30.370036983705784,59.999835423773483],[30.370054132544105,59.999846767114633],[30.370076927010466,59.999852412300669],[30.370119534419935,59.999845222503467],[30.370217310481756,59.999990079201233],[30.370174702440689,59.999997268998428],[30.37014636774547,60.000011541556873],[30.370146473202492,60.000025761146247],[30.370163622657859,60.0000371044874],[30.370203459549586,60.00003987397411],[30.370246067614971,60.000032684176915],[30.3702949553205,60.000105112388567],[30.370525037235065,60.000066287428794],[30.370231709896046,59.999631717609965],[30.370172059839557,59.999641783380937],[30.369916014630043,59.999248380413675],[30.369796714545231,59.999268511681166],[30.369535027976315,59.998880807143472],[30.369287906679407,59.998922507802561]]]},"properties":{"name":null,"alt_name":null,"category":"unspecified","restriction":null,"rotation":0.0,"display_point":{"type":"Point","coordinates":[30.369857949072117,59.999471737280693]},"address_id":"c4784091-ab99-4438-b68d-28ab3e062847"}},{"id":"a9794a2f-1197-4860-b126-0036701f7e54","type":"Feature","feature_type":"building","geometry":{"type":"Polygon","coordinates":[[[30.370779802300902,59.9983765184949],[30.370713660662293,59.998278527352724],[30.370398372294964,59.998331731357993],[30.370464513519757,59.99842972250017],[30.37006965612224,59.998491607944722],[30.370452124914667,59.999058253270505],[30.370673681514006,59.999020866434847],[30.370357140405169,59.9985237736214],[30.37098771907845,59.998417365061961],[30.371312785696524,59.998913020025746],[30.371542862593344,59.998874195065973],[30.371171782537324,59.998310372470435],[30.370779802300902,59.9983765184949]]]},"properties":{"name":null,"alt_name":null,"category":"unspecified","restriction":null,"rotation":0.0,"display_point":{"type":"Point","coordinates":[30.370635574821758,59.998486280298685]},"address_id":"c4784091-ab99-4438-b68d-28ab3e062847"}},{"id":"a17f7cb4-4d61-4382-8ff1-9390a2fe3b8a","type":"Feature","feature_type":"building","geometry":{"type":"Polygon","coordinates":[[[30.370885111133045,59.99915129002023],[30.370919196684714,59.99914553862159],[30.370899066434472,59.999115715385621],[30.37078828793377,59.999134408254548],[30.370771033564367,59.999108845324031],[30.370634690797161,59.999131853114193],[30.3706691997304,59.999182978975227],[30.370652156797565,59.99918585467455],[30.370844833070215,59.999471307490168],[30.370776661063346,59.999482811110795],[30.370865810212177,59.999614886068848],[30.371061803779668,59.999581813056615],[30.371263110348437,59.999880047337491],[30.371203459676039,59.999890113108464],[30.371281212911022,60.000019365610719],[30.371715809681177,59.999946030063512],[30.371684175452657,59.999899164782377],[30.371556353053453,59.999920734173976],[30.371268771044818,59.9994946852405],[30.371132427655553,59.99951769248176],[30.370885111133045,59.99915129002023]]]},"properties":{"name":null,"alt_name":null,"category":"unspecified","restriction":null,"rotation":0.0,"display_point":{"type":"Point","coordinates":[30.370843350744224,59.999272235160142]},"address_id":"c4784091-ab99-4438-b68d-28ab3e062847"}},{"id":"9601f27b-a0f7-4d13-b9d0-b24abb4f912b","type":"Feature","feature_type":"building","geometry":{"type":"Polygon","coordinates":[[[30.371802333641288,59.99896329234366],[30.371600696310161,59.999002063236553],[30.371862502112815,59.999403987089167],[30.371785809292234,59.999416928833909],[30.37181169156004,59.999455273229685],[30.372007684456246,59.999422200217452],[30.372263742228032,59.999815603459162],[30.372204092040466,59.999825668955687],[30.372224223095039,59.999855492466104],[30.372619086343157,59.999793607021552],[30.372593203475006,59.999755262625769],[30.372465381375775,59.999776831742921],[30.372344594262966,59.999597891229286],[30.372387308023455,59.999604921021451],[30.372449833657498,59.999599115830385],[30.372483813345124,59.999579144567925],[30.372486476827092,59.999554966517991],[30.372452178747974,59.99953227928679],[30.372400943966689,59.999526687344279],[30.372341294060497,59.999536753115251],[30.372312959755472,59.999551025948151],[30.372172042574185,59.999342261924092],[30.372069785649558,59.999359517492259],[30.371802333641288,59.99896329234366]]]},"properties":{"name":null,"alt_name":null,"category":"unspecified","restriction":null,"rotation":0.0,"display_point":{"type":"Point","coordinates":[30.371867404838987,59.999298752906263]},"address_id":"c4784091-ab99-4438-b68d-28ab3e062847"}},{"id":"ae36d52c-9c65-4b50-9139-f6b69583b52a","type":"Feature","feature_type":"building","geometry":{"type":"Polygon","coordinates":[[[30.367423854514435,59.998870154047005],[30.367843146204816,59.999572469641116],[30.368791114902255,59.999430970853375],[30.36872680454524,59.999323253436323],[30.36810631693276,59.99941587109911],[30.368096027442281,59.999398636663678],[30.368018466730078,59.999410213562776],[30.367961874729634,59.999315422795647],[30.368030817618322,59.999305131700268],[30.367897054591353,59.999081079648448],[30.36783672961376,59.99909008466566],[30.367772421142064,59.998982367248608],[30.36787583499061,59.998966930742768],[30.367857828613051,59.998936770480768],[30.368478312079866,59.998844152543519],[30.368406285154425,59.9987235092999],[30.367423854514435,59.998870154047005]]]},"properties":{"name":null,"alt_name":null,"category":"unspecified","restriction":null,"rotation":0.0,"display_point":{"type":"Point","coordinates":[30.367679806290841,59.999141663371127]},"address_id":"c4784091-ab99-4438-b68d-28ab3e062847"}},{"id":"553c1ae9-6ecb-4ba9-b3c8-9093f0ae02b1","type":"Feature","feature_type":"building","geometry":{"type":"Polygon","coordinates":[[[30.367250150118224,59.999883312208567],[30.367359526268984,60.000059430266411],[30.367385091082756,60.000055116442979],[30.367445478267438,60.0001445866998],[30.36741139162449,60.000150338647337],[30.367500534954203,60.00028241360539],[30.367526099296047,60.000278099507504],[30.367549104591532,60.000312183597835],[30.367719537555079,60.000283424683481],[30.367696532181782,60.000249340593157],[30.367730618850921,60.000243588920071],[30.367670231190235,60.000154118663247],[30.367695796020339,60.000149804839822],[30.367563623980391,59.999968041595942],[30.367538059760843,59.999972355419366],[30.367480547974022,59.999887145742456],[30.367454983231386,59.999891459565887],[30.367429102769215,59.999853115170104],[30.367250150118224,59.999883312208567]]]},"properties":{"name":null,"alt_name":null,"category":"unspecified","restriction":null,"rotation":0.0,"display_point":{"type":"Point","coordinates":[30.367387336167948,59.999974060310016]},"address_id":"c4784091-ab99-4438-b68d-28ab3e062847"}},{"id":"b8e15814-e0f0-4e5a-b54e-12edfd69ea16","type":"Feature","feature_type":"building","geometry":{"type":"Polygon","coordinates":[[[30.366939780029274,59.999143538147038],[30.367117783120364,59.999693963683356],[30.367393011595002,59.999671705968233],[30.36721500627392,59.999121279883013],[30.366939780029274,59.999143538147038]]]},"properties":{"name":null,"alt_name":null,"category":"unspecified","restriction":null,"rotation":0.0,"display_point":{"type":"Point","coordinates":[30.367000227094863,59.999161424678441]},"address_id":"c4784091-ab99-4438-b68d-28ab3e062847"}},{"id":"ddbc677d-4dc5-431c-a26f-82f4fdc156fc","type":"Feature","feature_type":"building","geometry":{"type":"Polygon","coordinates":[[[30.369126260826921,59.999751814970224],[30.369006960142844,59.999771946237708],[30.369021337993193,59.99979324886278],[30.368697519588661,59.999847890992157],[30.368683141281782,59.999826588367092],[30.368563839230131,59.99984671990903],[30.368612725505393,59.999919148395136],[30.368382642705829,59.999957973080456],[30.368417150604024,60.0000090989415],[30.3684682800514,60.000000471294634],[30.368560406400739,60.000151026147506],[30.368781968003415,60.000113639311849],[30.368761838147645,60.000083815801425],[30.368744794625329,60.000086691775195],[30.368667151954771,59.99997165858786],[30.369195488664637,59.999882505596588],[30.36926738117738,59.999989017898571],[30.369250337701487,59.999991893597887],[30.369279094761669,60.000034498573569],[30.369500655018985,59.999997111737912],[30.369397130088963,59.999843734154794],[30.369431215852327,59.999837982481708],[30.369396707808626,59.999786856620666],[30.369175147647809,59.999824243456324],[30.369126260826921,59.999751814970224]]]},"properties":{"name":null,"alt_name":null,"category":"unspecified","restriction":null,"rotation":0.0,"display_point":{"type":"Point","coordinates":[30.368819697051464,59.999832020030119]},"address_id":"c4784091-ab99-4438-b68d-28ab3e062847"}},{"id":"8c9f16d4-af6f-44d8-9861-9d705339ba26","type":"Feature","feature_type":"building","geometry":{"type":"Polygon","coordinates":[[[30.373522797829239,59.997420078136884],[30.373586173306503,59.997528028562975],[30.375120400638966,59.997326074221256],[30.375045412573943,59.997186862709533],[30.374771246481725,59.997223637519092],[30.37478424182164,59.997249919511667],[30.373522797829239,59.997420078136884]]]},"properties":{"name":null,"alt_name":null,"category":"unspecified","restriction":null,"rotation":0.0,"display_point":{"type":"Point","coordinates":[30.374187551533179,59.997322137493725]},"address_id":"c4784091-ab99-4438-b68d-28ab3e062847"}},{"id":"2c970d89-9e7c-49ed-926d-514387363803","type":"Feature","feature_type":"building","geometry":{"type":"Polygon","coordinates":[[[30.375776095656487,59.997158474578704],[30.375874093226034,59.997331769631856],[30.37613260148072,59.997292891428557],[30.37610085783626,59.997231807381404],[30.37655822559427,59.997164116196878],[30.376598490301888,59.997223763217725],[30.376865518371197,59.99718344743922],[30.376770394263687,59.997014411868172],[30.375776095656487,59.997158474578704]]]},"properties":{"name":null,"alt_name":null,"category":"unspecified","restriction":null,"rotation":0.0,"display_point":{"type":"Point","coordinates":[30.376247735796166,59.997097866429876]},"address_id":"c4784091-ab99-4438-b68d-28ab3e062847"}},{"id":"a376ad70-4a32-4f42-8ed1-e01b2a96061b","type":"Feature","feature_type":"building","geometry":{"type":"Polygon","coordinates":[[[30.376987260164928,59.9971106986686],[30.377128187787577,59.997319462692658],[30.376915161491478,59.997355411953116],[30.376961178650106,59.997423579584861],[30.377336105162634,59.997360309259719],[30.377295839981347,59.997300662238878],[30.37735548684314,59.997290596467906],[30.377220203609191,59.997076134288733],[30.376987260164928,59.9971106986686]]]},"properties":{"name":null,"alt_name":null,"category":"unspecified","restriction":null,"rotation":0.0,"display_point":{"type":"Point","coordinates":[30.377158216398605,59.9971530366033]},"address_id":"c4784091-ab99-4438-b68d-28ab3e062847"}},{"id":"bdbec096-6525-4494-b209-3569a1a15bb1","type":"Feature","feature_type":"building","geometry":{"type":"Polygon","coordinates":[[[30.376840327180652,59.9983694113075],[30.377035903429707,59.998659124703018],[30.377564218379618,59.9985699714373],[30.377371516013746,59.998284518621681],[30.376840327180652,59.9983694113075]]]},"properties":{"name":null,"alt_name":null,"category":"unspecified","restriction":null,"rotation":0.0,"display_point":{"type":"Point","coordinates":[30.377118971453797,59.998360356614626]},"address_id":"c4784091-ab99-4438-b68d-28ab3e062847"}},{"id":"12e9c28c-0b6d-451f-94f8-b111a42e2aef","type":"Feature","feature_type":"building","geometry":{"type":"Polygon","coordinates":[[[30.376146177039963,59.998719094478439],[30.376169185685526,59.998753178568762],[30.376101015618964,59.998764682463843],[30.376095263325897,59.998756161304037],[30.37583962573736,59.998799299538334],[30.375787856526891,59.998722610746782],[30.375540740036747,59.998764311405871],[30.37556950061439,59.9988069161071],[30.375492809211149,59.998819858126289],[30.375484181156885,59.998807076935485],[30.375237064159812,59.998848777594574],[30.375331973298167,59.998989373437979],[30.375579090760588,59.99894767277889],[30.375553206233306,59.998909328657561],[30.375629897728448,59.998896386638371],[30.375635649699298,59.998904907249276],[30.37588276665479,59.998863206590187],[30.375931659941688,59.998935635076293],[30.376187297997038,59.998892497116444],[30.376167165448926,59.99886267360602],[30.376473930827185,59.998810907175958],[30.376384771840112,59.998678831943458],[30.376146177039963,59.998719094478439]]]},"properties":{"name":null,"alt_name":null,"category":"unspecified","restriction":null,"rotation":0.0,"display_point":{"type":"Point","coordinates":[30.375788284569673,59.998779488555357]},"address_id":"c4784091-ab99-4438-b68d-28ab3e062847"}},{"id":"bfcab2a8-7957-45b8-b949-9b5756c3ce14","type":"Feature","feature_type":"building","geometry":{"type":"Polygon","coordinates":[[[30.377804636333149,59.998771438353749],[30.377847242755518,59.998764248831],[30.378028443712264,59.999032659875908],[30.377253009065445,59.999163513800717],[30.377071810896403,59.998895102755817],[30.377114416929114,59.998887912684161],[30.377042513528028,59.998781400382178],[30.376752791309038,59.998830291112924],[30.377109326470602,59.999344372453557],[30.37837047516204,59.999131555334678],[30.378022452718039,59.998616035869929],[30.377732731947404,59.998664926051774],[30.377804636333149,59.998771438353749]]]},"properties":{"name":null,"alt_name":null,"category":"unspecified","restriction":null,"rotation":0.0,"display_point":{"type":"Point","coordinates":[30.37749686398357,59.998877952302443]},"address_id":"c4784091-ab99-4438-b68d-28ab3e062847"}},{"id":"0969f8b3-af37-4c9b-aabb-a346ff647944","type":"Feature","feature_type":"building","geometry":{"type":"Polygon","coordinates":[[[30.378072154790875,60.005572182912104],[30.378133999618719,60.005663783458871],[30.3784152284832,60.005616330989469],[30.378353383584773,60.005524730579921],[30.378072154790875,60.005572182912104]]]},"properties":{"name":null,"alt_name":null,"category":"unspecified","restriction":null,"rotation":0.0,"display_point":{"type":"Point","coordinates":[30.378243691442552,60.005594257019396]},"address_id":"c4784091-ab99-4438-b68d-28ab3e062847"}},{"id":"33b0e330-e173-4719-9133-ea75c331f63d","type":"Feature","feature_type":"building","geometry":{"type":"Polygon","coordinates":[[[30.382084654449567,60.006358724275692],[30.382158285463603,60.006445684951046],[30.382350548421734,60.006407445121162],[30.38227516406241,60.006318413986214],[30.382084654449567,60.006358724275692]]]},"properties":{"name":null,"alt_name":null,"category":"unspecified","restriction":null,"rotation":0.0,"display_point":{"type":"Point","coordinates":[30.382217163789171,60.006382566946307]},"address_id":"c4784091-ab99-4438-b68d-28ab3e062847"}},{"id":"30c09bcb-28d3-4020-88bc-c3d813c80900","type":"Feature","feature_type":"building","geometry":{"type":"Polygon","coordinates":[[[30.380100955680078,60.007178037578591],[30.380181503748759,60.007297331345832],[30.380300815153614,60.007277200078342],[30.38022026744326,60.0071579063111],[30.380100955680078,60.007178037578591]]]},"properties":{"name":null,"alt_name":null,"category":"unspecified","restriction":null,"rotation":0.0,"display_point":{"type":"Point","coordinates":[30.380200795845766,60.007227485719646]},"address_id":"c4784091-ab99-4438-b68d-28ab3e062847"}},{"id":"8cd5b638-bef3-4617-b3e8-b409a9b56a95","type":"Feature","feature_type":"building","geometry":{"type":"Polygon","coordinates":[[[30.379728435521056,60.007940908626907],[30.37979747614116,60.008043160623437],[30.379908267015907,60.0080244672056],[30.379839225695044,60.007922215209078],[30.379728435521056,60.007940908626907]]]},"properties":{"name":null,"alt_name":null,"category":"unspecified","restriction":null,"rotation":0.0,"display_point":{"type":"Point","coordinates":[30.379818351211696,60.007982688053481]},"address_id":"c4784091-ab99-4438-b68d-28ab3e062847"}},{"id":"3ad4d981-6df3-445f-b7a7-d96c6fbcae5d","type":"Feature","feature_type":"building","geometry":{"type":"Polygon","coordinates":[[[30.380087921382984,60.006772091644137],[30.380126756331858,60.006829608375028],[30.380327027833285,60.006795816575192],[30.380288192730106,60.0067382998443],[30.380087921382984,60.006772091644137]]]},"properties":{"name":null,"alt_name":null,"category":"unspecified","restriction":null,"rotation":0.0,"display_point":{"type":"Point","coordinates":[30.3801874188183,60.006764795085431]},"address_id":"c4784091-ab99-4438-b68d-28ab3e062847"}},{"id":"3a3a98db-3584-42bb-a52e-f4b072bc3c47","type":"Feature","feature_type":"building","geometry":{"type":"Polygon","coordinates":[[[30.379572823971088,60.007675293690482],[30.379614536040012,60.007737070726826],[30.379691236975656,60.007724128982083],[30.379649524843256,60.00766235194574],[30.379572823971088,60.007675293690482]]]},"properties":{"name":null,"alt_name":null,"category":"unspecified","restriction":null,"rotation":0.0,"display_point":{"type":"Point","coordinates":[30.379622734933257,60.007692974383509]},"address_id":"c4784091-ab99-4438-b68d-28ab3e062847"}},{"id":"60224d90-1ecb-4245-ba34-28d378c00123","type":"Feature","feature_type":"building","geometry":{"type":"Polygon","coordinates":[[[30.378919961324332,60.007783640424059],[30.378969966066894,60.00785110436302],[30.379436354202024,60.007765317240853],[30.37938634932312,60.007697853301892],[30.378919961324332,60.007783640424059]]]},"properties":{"name":null,"alt_name":null,"category":"unspecified","restriction":null,"rotation":0.0,"display_point":{"type":"Point","coordinates":[30.379158321446262,60.007778452473666]},"address_id":"c4784091-ab99-4438-b68d-28ab3e062847"}},{"id":"0821352f-8c0f-45c3-a4f5-6a644f44c626","type":"Feature","feature_type":"building","geometry":{"type":"Polygon","coordinates":[[[30.3784848270823,60.0076737800923],[30.378535167940921,60.00774833886836],[30.378739704300624,60.007713827732019],[30.378689363237712,60.007639268955955],[30.3784848270823,60.0076737800923]]]},"properties":{"name":null,"alt_name":null,"category":"unspecified","restriction":null,"rotation":0.0,"display_point":{"type":"Point","coordinates":[30.378560412339709,60.007701366551267]},"address_id":"c4784091-ab99-4438-b68d-28ab3e062847"}},{"id":"2e4ed32b-0fc7-4705-a65d-ca0f42cd8f37","type":"Feature","feature_type":"building","geometry":{"type":"Polygon","coordinates":[[[30.374389152386136,60.0077099044526],[30.374423668696469,60.007761030313631],[30.374636729583816,60.007725081327635],[30.374602213127559,60.007673955466593],[30.374389152386136,60.0077099044526]]]},"properties":{"name":null,"alt_name":null,"category":"unspecified","restriction":null,"rotation":0.0,"display_point":{"type":"Point","coordinates":[30.374474483604256,60.007709744173113]},"address_id":"c4784091-ab99-4438-b68d-28ab3e062847"}},{"id":"04f59418-f5ac-4a3e-9781-2a1c2ee2d623","type":"Feature","feature_type":"building","geometry":{"type":"Polygon","coordinates":[[[30.37417175051419,60.001285175831228],[30.374212015578369,60.001344822714849],[30.37454009785657,60.001289461523413],[30.3745012706058,60.001231944929742],[30.37417175051419,60.001285175831228]]]},"properties":{"name":null,"alt_name":null,"category":"unspecified","restriction":null,"rotation":0.0,"display_point":{"type":"Point","coordinates":[30.374262825447122,60.001293536574323]},"address_id":"c4784091-ab99-4438-b68d-28ab3e062847"}},{"id":"9e1c02e6-2f43-4a8c-b699-0d366d4834ce","type":"Feature","feature_type":"building","geometry":{"type":"Polygon","coordinates":[[[30.37409638639318,60.000906364060214],[30.374126584891997,60.000951099325853],[30.374216061387191,60.000936000943845],[30.374185862834757,60.000891265678213],[30.37409638639318,60.000906364060214]]]},"properties":{"name":null,"alt_name":null,"category":"unspecified","restriction":null,"rotation":0.0,"display_point":{"type":"Point","coordinates":[30.374117743581934,60.000909879230754]},"address_id":"c4784091-ab99-4438-b68d-28ab3e062847"}},{"id":"3aba31f2-8e7f-4da0-bbe8-10d7c5cec30c","type":"Feature","feature_type":"building","geometry":{"type":"Polygon","coordinates":[[[30.374562755561374,60.000820296448957],[30.374581704990732,60.000854999701112],[30.374746554667929,60.000832498822255],[30.374727605295774,60.000797795844548],[30.374562755561374,60.000820296448957]]]},"properties":{"name":null,"alt_name":null,"category":"unspecified","restriction":null,"rotation":0.0,"display_point":{"type":"Point","coordinates":[30.374654655106177,60.000826397772833]},"address_id":"c4784091-ab99-4438-b68d-28ab3e062847"}},{"id":"305990a1-dc99-493f-8e60-fcbf14e74f21","type":"Feature","feature_type":"building","geometry":{"type":"Polygon","coordinates":[[[30.374733551936831,60.000799902257249],[30.374779742684638,60.000827482952744],[30.374910761045125,60.000772634710536],[30.374864570143757,60.000745054015042],[30.374733551936831,60.000799902257249]]]},"properties":{"name":null,"alt_name":null,"category":"unspecified","restriction":null,"rotation":0.0,"display_point":{"type":"Point","coordinates":[30.374822156509239,60.000786268346666]},"address_id":"c4784091-ab99-4438-b68d-28ab3e062847"}},{"id":"3db6939b-6734-49d2-959a-5f4db2bf593b","type":"Feature","feature_type":"building","geometry":{"type":"Polygon","coordinates":[[[30.379451386280767,60.009667690868426],[30.379549196750713,60.009812547291737],[30.379327609019928,60.009849934127395],[30.379396651562132,60.009952185849478],[30.379801475682232,60.009883883187747],[30.379634621759966,60.00963677504236],[30.379451386280767,60.009667690868426]]]},"properties":{"name":null,"alt_name":null,"category":"unspecified","restriction":null,"rotation":0.0,"display_point":{"type":"Point","coordinates":[30.379516905683833,60.00968036557218]},"address_id":"c4784091-ab99-4438-b68d-28ab3e062847"}},{"id":"1ef78a47-3c49-4e76-a298-17019fd47573","type":"Feature","feature_type":"building","geometry":{"type":"Polygon","coordinates":[[[30.378255745575256,60.010294175605324],[30.378219786452355,60.010240919454333],[30.379080575688395,60.010095686484021],[30.379100713243808,60.010125509994445],[30.379292472702339,60.01009315604427],[30.379138565451928,60.009865219959551],[30.377931173479421,60.010066560079565],[30.378102337151507,60.0103200590948],[30.378255745575256,60.010294175605324]]]},"properties":{"name":null,"alt_name":null,"category":"unspecified","restriction":null,"rotation":0.0,"display_point":{"type":"Point","coordinates":[30.378222597261246,60.010048238817511]},"address_id":"c4784091-ab99-4438-b68d-28ab3e062847"}},{"id":"099baa18-d33c-4dc0-ba2d-83c23c643210","type":"Feature","feature_type":"building","geometry":{"type":"Polygon","coordinates":[[[30.368523670340569,59.998999122766755],[30.368625402118056,59.999178663779546],[30.368820096247568,59.99915108253515],[30.368718363984087,59.998971541796813],[30.368523670340569,59.998999122766755]]]},"properties":{"name":null,"alt_name":null,"category":"unspecified","restriction":null,"rotation":0.0,"display_point":{"type":"Point","coordinates":[30.368671882849412,59.9990751023765]},"address_id":"c4784091-ab99-4438-b68d-28ab3e062847"}},{"id":"17163b23-b725-4cc7-8b3b-059d0d8e39c1","type":"Feature","feature_type":"building","geometry":{"type":"Polygon","coordinates":[[[30.3678812571122,60.000577929447466],[30.367911370189297,60.00063905438784],[30.368177719418394,60.000606247318792],[30.368147606659065,60.000545122378412],[30.3678812571122,60.000577929447466]]]},"properties":{"name":null,"alt_name":null,"category":"unspecified","restriction":null,"rotation":0.0,"display_point":{"type":"Point","coordinates":[30.368021863100036,60.000590712010528]},"address_id":"c4784091-ab99-4438-b68d-28ab3e062847"}},{"id":"24cea3cc-1dbb-4859-a82f-a2ee3e10acb2","type":"Feature","feature_type":"building","geometry":{"type":"Polygon","coordinates":[[[30.372812451391692,59.998146294036353],[30.372886845865906,59.99824279435979],[30.372987545696734,59.998223386820023],[30.372913151234687,59.998126886496586],[30.372812451391692,59.998146294036353]]]},"properties":{"name":null,"alt_name":null,"category":"unspecified","restriction":null,"rotation":0.0,"display_point":{"type":"Point","coordinates":[30.372899998493196,59.998184840702642]},"address_id":"c4784091-ab99-4438-b68d-28ab3e062847"}},{"id":"09554078-afbe-427a-8858-de5de2786d2f","type":"Feature","feature_type":"building","geometry":{"type":"Polygon","coordinates":[[[30.375312575565239,59.998646035578005],[30.375343965433178,59.998716248419846],[30.375440511504475,59.998705458097795],[30.375409121264731,59.998635245804856],[30.375312575565239,59.998646035578005]]]},"properties":{"name":null,"alt_name":null,"category":"unspecified","restriction":null,"rotation":0.0,"display_point":{"type":"Point","coordinates":[30.375376543368898,59.998675747112351]},"address_id":"c4784091-ab99-4438-b68d-28ab3e062847"}},{"id":"a5441ff0-4183-44a4-841d-141a5cabad33","type":"Feature","feature_type":"building","geometry":{"type":"Polygon","coordinates":[[[30.377025044558774,59.997535674772465],[30.377054264394815,59.99758527907624],[30.377317387099712,59.997546534256209],[30.377327549985289,59.997563787354323],[30.377478522020382,59.997541556809864],[30.377439138979241,59.997474698859072],[30.377025044558774,59.997535674772465]]]},"properties":{"name":null,"alt_name":null,"category":"unspecified","restriction":null,"rotation":0.0,"display_point":{"type":"Point","coordinates":[30.377286158243372,59.9975253510174]},"address_id":"c4784091-ab99-4438-b68d-28ab3e062847"}},{"id":"a6f05c4d-85c8-4371-8541-809531dd8fb4","type":"Feature","feature_type":"building","geometry":{"type":"Polygon","coordinates":[[[30.369177563995571,59.998808246646355],[30.36920488250388,59.998848721606535],[30.369409396215232,59.998814210470194],[30.369382077596054,59.998773735510014],[30.369177563995571,59.998808246646355]]]},"properties":{"name":null,"alt_name":null,"category":"unspecified","restriction":null,"rotation":0.0,"display_point":{"type":"Point","coordinates":[30.369289937754743,59.998813012765304]},"address_id":"c4784091-ab99-4438-b68d-28ab3e062847"}}]}